,address,categories,cc,city,country,crossStreet,distance,formattedAddress,id,labeledLatLngs,lat,lng,name,neighborhood,postalCode,state
0,3510 N Halsted St,Frozen Yogurt Shop,US,Chicago,United States,btwn Brompton & Cornelia Ave,260,"['3510 N Halsted St (btwn Brompton & Cornelia Ave)', 'Chicago, IL 60657', 'United States']",4f889f65e4b04a075de5a990,"[{'label': 'display', 'lat': 41.945745769187674, 'lng': -87.6494743066383}]",41.945745769187674,-87.6494743066383,Forever Yogurt,,60657,IL
1,613 W Diversey Pkwy,Ice Cream Shop,US,Chicago,United States,,1264,"['613 W Diversey Pkwy', 'Chicago, IL 60614', 'United States']",4e4e09b6bd4101d0d7a0c9d7,"[{'label': 'display', 'lat': 41.932872, 'lng': -87.644314}]",41.932872,-87.644314,Cold Stone Creamery,,60614,IL
2,,Ice Cream Shop,US,Chicago,United States,,863,"['Chicago, IL 60657', 'United States']",5c8ec19ff193c0002c491c15,"[{'label': 'display', 'lat': 41.936569, 'lng': -87.644382}]",41.936569,-87.644382,Johnson’s Real Ice Cream,,60657,IL
3,3055 N Sheffield Ave,Dessert Shop,US,Chicago,United States,,860,"['3055 N Sheffield Ave', 'Chicago, IL 60657', 'United States']",5758ed15498e8e720571222b,"[{'label': 'display', 'lat': 41.937958906645356, 'lng': -87.65387014542102}]",41.937958906645356,-87.65387014542102,Oberweis Ice Cream and Dairy Store,,60657,IL
4,3308 N Broadway St,Candy Store,US,Chicago,United States,at W Aldine Ave,316,"['3308 N Broadway St (at W Aldine Ave)', 'Chicago, IL 60657', 'United States']",4a160b04f964a520e9781fe3,"[{'label': 'display', 'lat': 41.942162294752954, 'lng': -87.64446574377408}]",41.942162294752954,-87.64446574377408,Windy City Sweets,,60657,IL
5,3208 N Sheffield Ave,Pie Shop,US,Chicago,United States,Belmont Ave,703,"['3208 N Sheffield Ave (Belmont Ave)', 'Chicago, IL 60657', 'United States']",5c670e92f709c1002c16accf,"[{'label': 'display', 'lat': 41.940225, 'lng': -87.654196}]",41.940225,-87.654196,Barangaroos Aussie Pies,,60657,IL
6,820 W Belmont Ave,Ice Cream Shop,US,Chicago,United States,Clark,493,"['820 W Belmont Ave (Clark)', 'Chicago, IL 60657', 'United States']",5a98b89b9ba3e56e68daa91a,"[{'label': 'display', 'lat': 41.940074, 'lng': -87.65017}]",41.940074,-87.65017,Okashi,,60657,IL
7,,Ice Cream Shop,US,Chicago,United States,,634,"['Chicago, IL 60657', 'United States']",5b8f23388194fc00397bff2a,"[{'label': 'display', 'lat': 41.938826, 'lng': -87.644164}]",41.938826,-87.644164,Legend Tasty House,,60657,IL
8,Rush,Dessert Shop,US,Chicago,United States,Oak,293,"['Rush (Oak)', 'Chicago, IL', 'United States']",4e6a84baaeb7c31e4318c155,"[{'label': 'display', 'lat': 41.941808, 'lng': -87.649352}]",41.941808,-87.649352,Culture Mobile Unit,,,IL
9,3055 N Sheffield Ave,Ice Cream Shop,US,Chicago,United States,at W Barry Ave,842,"['3055 N Sheffield Ave (at W Barry Ave)', 'Chicago, IL 60657', 'United States']",5042b9fee4b029b249c13e80,"[{'label': 'display', 'lat': 41.938137739515916, 'lng': -87.65381619337757}]",41.938137739515916,-87.65381619337757,Oberweis,,60657,IL
10,3042 N Broadway St,Diner,US,Chicago,United States,at W Barry Ave,724,"['3042 N Broadway St (at W Barry Ave)', 'Chicago, IL 60657', 'United States']",4a25b257f964a520827e1fe3,"[{'label': 'display', 'lat': 41.937858317961016, 'lng': -87.64447130404226}]",41.937858317961016,-87.64447130404226,Stella's Diner,,60657,IL
11,2935 N Broadway St,Ice Cream Shop,US,Chicago,United States,,935,"['2935 N Broadway St', 'Chicago, IL 60657', 'United States']",5b836c79e706550025f7c5a3,"[{'label': 'display', 'lat': 41.935952, 'lng': -87.644111}]",41.935952,-87.644111,Maple Butter,,60657,IL
12,3637 N Clark St,Ice Cream Shop,US,Chicago,United States,at W Patterson Ave,963,"['3637 N Clark St (at W Patterson Ave)', 'Chicago, IL 60613', 'United States']",5ab7ff105455b23aaf0877fc,"[{'label': 'display', 'lat': 41.94847158987541, 'lng': -87.65735331286234}]",41.94847158987541,-87.65735331286234,Jeni’s Splendid Ice Creams,,60613,IL
13,2814 1/2 N Halsted St,Frozen Yogurt Shop,US,Chicago,United States,Diversey,1202,"['2814 1/2 N Halsted St (Diversey)', 'Chicago, IL 60657', 'United States']",5394d54c498eb409d69971ef,"[{'label': 'display', 'lat': 41.933288, 'lng': -87.649254}]",41.933288,-87.649254,Yoberri,,60657,IL
14,2935 N Broadway St,Ice Cream Shop,US,Chicago,United States,Wellington,934,"['2935 N Broadway St (Wellington)', 'Chicago, IL 60657', 'United States']",5a74eebcc9f90733d6303508,"[{'label': 'display', 'lat': 41.935997, 'lng': -87.643957}]",41.935997,-87.643957,Chill N2O,,60657,IL
15,2935 N Broadway St,Ice Cream Shop,US,Chicago,United States,,984,"['2935 N Broadway St', 'Chicago, IL 60657', 'United States']",5b0c6cccf15b51002cb65df2,"[{'label': 'display', 'lat': 41.935512, 'lng': -87.644036}]",41.935512,-87.644036,Snow Factory,,60657,IL
16,2935 N Broadway St,Frozen Yogurt Shop,US,Chicago,United States,Oakdale,931,"['2935 N Broadway St (Oakdale)', 'Chicago, IL 60657', 'United States']",536e7bb4498e122752d21a35,"[{'label': 'display', 'lat': 41.93597899095925, 'lng': -87.64418206789199}]",41.93597899095925,-87.64418206789199,Yo Fresh,,60657,IL
17,801 W Diversey Pkwy,Ice Cream Shop,US,Chicago,United States,,1270,"['801 W Diversey Pkwy', 'Chicago, IL 60614', 'United States']",4c51ce999d642d7ff57636de,"[{'label': 'display', 'lat': 41.932669159652136, 'lng': -87.64926290316797}]",41.932669159652136,-87.64926290316797,Baskin-Robbins,,60614,IL
18,3343 N Broadway St,Ice Cream Shop,US,Chicago,United States,Roscoe,245,"['3343 N Broadway St (Roscoe)', 'Chicago, IL', 'United States']",556b6b5b498ee2f2cbcca039,"[{'label': 'display', 'lat': 41.94305529951489, 'lng': -87.64470870540141}]",41.94305529951489,-87.64470870540141,Pie-N-Cones: The Ala Mode Cafe,,,IL
19,2943 N Broadway St,Ice Cream Shop,US,Chicago,United States,,915,"['2943 N Broadway St', 'Chicago, IL 60657', 'United States']",53bda5a6498eba307207c354,"[{'label': 'display', 'lat': 41.93611145019531, 'lng': -87.64424133300781}]",41.93611145019531,-87.64424133300781,Ice Box,,60657,IL
20,,Ice Cream Shop,US,Chicago,United States,,517,"['Chicago, IL', 'United States']",513bc116e4b0cb85e11526f2,"[{'label': 'display', 'lat': 41.940323, 'lng': -87.65122}]",41.940323,-87.65122,Baskin-Robbins,,,IL
21,2935 N Broadway St,Frozen Yogurt Shop,US,Chicago,United States,,924,"['2935 N Broadway St', 'Chicago, IL 60657', 'United States']",545ed020498e95315963e1b8,"[{'label': 'display', 'lat': 41.936048649185935, 'lng': -87.64413535148094}]",41.936048649185935,-87.64413535148094,YoFresh Yogurt and Cafe,,60657,IL
22,2727 N Clark St,Dessert Shop,US,Chicago,United States,Diversey,1339,"['2727 N Clark St (Diversey)', 'Chicago, IL 60614', 'United States']",521fa409498ec4571ff36499,"[{'label': 'display', 'lat': 41.932130530599345, 'lng': -87.64470732751121}]",41.932130530599345,-87.64470732751121,Forever Yogurt,,60614,IL
23,,Dessert Shop,US,,United States,,1251,"['Illinois', 'United States']",4d9132c5cbc1224b33e214d5,"[{'label': 'display', 'lat': 41.933298, 'lng': -87.65204}]",41.933298,-87.65204,The Kitchen Of Mandicakes,,,Illinois
24,1302 W Addison St,Dessert Shop,US,Chicago,United States,,1259,"['1302 W Addison St', 'Chicago, IL 60613', 'United States']",4f318b4ce4b092d58bc53b80,"[{'label': 'display', 'lat': 41.94746589095257, 'lng': -87.66186744351197}]",41.94746589095257,-87.66186744351197,The Treat Laboratory,,60613,IL
25,,Dessert Shop,US,Chicago,United States,,1337,"['Chicago, IL', 'United States']",5223e503498e32c9d16e2c12,"[{'label': 'display', 'lat': 41.931983947753906, 'lng': -87.64751434326172}]",41.931983947753906,-87.64751434326172,Solstice Chocolate Bar,,,IL
26,832 W Diversey,Dessert Shop,US,Chicago,United States,,1294,"['832 W Diversey', 'Chicago, IL', 'United States']",515205e672da5b9ae84e8026,"[{'label': 'display', 'lat': 41.932610024583504, 'lng': -87.65055119991302}]",41.932610024583504,-87.65055119991302,Grunder Ice Cream,,,IL
27,2943 N Broadway St,Dessert Shop,US,Chicago,United States,btw. Wellington & Oakdale,905,"['2943 N Broadway St (btw. Wellington & Oakdale)', 'Chicago, IL 60657', 'United States']",4a25b1b9f964a520807e1fe3,"[{'label': 'display', 'lat': 41.93620898355495, 'lng': -87.64424616834636}]",41.93620898355495,-87.64424616834636,Icebox,,60657,IL
28,2808 N Clark St,Dessert Shop,US,Chicago,United States,,1227,"['2808 N Clark St', 'Chicago, IL 60657', 'United States']",4fbad08fe4b01e9233f533b3,"[{'label': 'display', 'lat': 41.933105045566414, 'lng': -87.6450893313375}]",41.933105045566414,-87.6450893313375,Fuzziwig's Candy Factory,,60657,IL
29,2865 N Clark St,Ice Cream Shop,US,Chicago,United States,,1084,"['2865 N Clark St', 'Chicago, IL 60657', 'United States']",4f325bd019836c91c7cff58a,"[{'label': 'display', 'lat': 41.934299, 'lng': -87.646202}]",41.934299,-87.646202,Ice Dreams,,60657,IL
30,1927 W Fullerton Ave,Ice Cream Shop,US,Chicago,United States,at N Elston Ave,385,"['1927 W Fullerton Ave (at N Elston Ave)', 'Chicago, IL 60614', 'United States']",4f997b4cd4f21823bb1f4e68,"[{'label': 'display', 'lat': 41.92489095221057, 'lng': -87.6766654010009}]",41.92489095221057,-87.6766654010009,Baskin-Robbins,,60614,IL
31,1814 N Western Ave,Dessert Shop,US,Chicago,United States,W Moffat,1090,"['1814 N Western Ave (W Moffat)', 'Chicago, IL 60647', 'United States']",5ae279bf89ad460024d96c69,"[{'label': 'display', 'lat': 41.914516, 'lng': -87.687499}]",41.914516,-87.687499,Ava’s Italian Ice,,60647,IL
32,,Ice Cream Shop,US,Chicago,United States,,542,"['Chicago, IL 60647', 'United States']",4bedcc49767dc9b6877dd3e9,"[{'label': 'display', 'lat': 41.91992705978656, 'lng': -87.68565836074946}]",41.91992705978656,-87.68565836074946,Baskin Robins,,60647,IL
33,1960 N Western Ave,Ice Cream Shop,US,Chicago,United States,at W Armitage Ave,830,"['1960 N Western Ave (at W Armitage Ave)', 'Chicago, IL 60647', 'United States']",4a0997e7f964a5203e741fe3,"[{'label': 'display', 'lat': 41.91751750107163, 'lng': -87.6874814489691}]",41.91751750107163,-87.6874814489691,Margie's Candies,,60647,IL
34,,Cupcake Shop,US,Chicago,United States,Western & Dickens,751,"['Chicago, IL 60647', 'United States']",4cec62a4ed62721ece0150fd,"[{'label': 'display', 'lat': 41.918955, 'lng': -87.687815}]",41.918955,-87.687815,Cakes Estate,,60647,IL
35,2039 N Western Ave,Cupcake Shop,US,Chicago,United States,Armitage,748,"['2039 N Western Ave (Armitage)', 'Chicago, IL 60647', 'United States']",538a1ea7498e8da3bcca33c8,"[{'label': 'display', 'lat': 41.91873808669676, 'lng': -87.68756937646891}]",41.91873808669676,-87.68756937646891,GBD,Logan Square,60647,IL
36,1747 N Damen Ave,Dessert Shop,US,Chicago,United States,at W Willow St,1032,"['1747 N Damen Ave (at W Willow St)', 'Chicago, IL 60647', 'United States']",4a270e66f964a52053911fe3,"[{'label': 'display', 'lat': 41.91368547149983, 'lng': -87.67740283612902}]",41.91368547149983,-87.67740283612902,Mindy's Hot Chocolate,,60647,IL
37,2409 N Western Ave,Dessert Shop,US,Chicago,United States,Fullerton,663,"['2409 N Western Ave (Fullerton)', 'Chicago, IL 60647', 'United States']",52f7b5a111d2cd18997abc2d,"[{'label': 'display', 'lat': 41.925271, 'lng': -87.687509}]",41.925271,-87.687509,Veruca Chocolates,,60647,IL
38,"1730 W Fullerton Ave, Ste 28",Frozen Yogurt Shop,US,Chicago,United States,at Riverpoint Center,777,"['1730 W Fullerton Ave, Ste 28 (at Riverpoint Center)', 'Chicago, IL 60614', 'United States']",53eaccc9498ebe3ddea02224,"[{'label': 'display', 'lat': 41.927310692421706, 'lng': -87.67321996888168}]",41.927310692421706,-87.67321996888168,Menchie's Frozen Yogurt,,60614,IL
39,1944 N Damen Ave,Bakery,US,Chicago,United States,at W Armitage Ave,647,"['1944 N Damen Ave (at W Armitage Ave)', 'Chicago, IL 60647', 'United States']",4e7e28545503416b24cbf9b7,"[{'label': 'display', 'lat': 41.917234709164546, 'lng': -87.67761388580448}]",41.917234709164546,-87.67761388580448,Tipsycake,,60647,IL
40,1730 W Fullerton Ave,Fast Food Restaurant,US,Chicago,United States,,760,"['1730 W Fullerton Ave', 'Chicago, IL 60614', 'United States']",4b93fbf5f964a520fe5e34e3,"[{'label': 'display', 'lat': 41.927078, 'lng': -87.67322}]",41.927078,-87.67322,Scoop's,,60614,IL
41,1846 N Damen Ave,Ice Cream Shop,US,Chicago,United States,at W Moffat St,864,"['1846 N Damen Ave (at W Moffat St)', 'Chicago, IL 60647', 'United States']",4a60e17cf964a52062c11fe3,"[{'label': 'display', 'lat': 41.915200898343286, 'lng': -87.67758079344203}]",41.915200898343286,-87.67758079344203,Miko's Italian Ice,,60647,IL
42,2200 N Lincoln Ave,Dessert Shop,US,Chicago,United States,Dearborn St,775,"['2200 N Lincoln Ave (Dearborn St)', 'Chicago, IL 60614', 'United States']",4bd1d668b221c9b60b4cd6d0,"[{'label': 'display', 'lat': 41.903099911760144, 'lng': -87.63250290301517}]",41.903099911760144,-87.63250290301517,Orange Julius,,60614,IL
43,1344 N Wells St,Bakery,US,Chicago,United States,,866,"['1344 N Wells St', 'Chicago, IL 60610', 'United States']",593c5cb76cf01a13d3c4f63d,"[{'label': 'display', 'lat': 41.906943371575686, 'lng': -87.63455968966211}]",41.906943371575686,-87.63455968966211,Insomnia cookies,,60610,IL
44,214-298 W Institute Pl,Cupcake Shop,US,Chicago,United States,Wells,656,"['214-298 W Institute Pl (Wells)', 'Chicago, IL 60610', 'United States']",4c3bee727d002d7f9fdaad18,"[{'label': 'display', 'lat': 41.897499561309814, 'lng': -87.6351836}]",41.897499561309814,-87.6351836,Bubba Cupcakes,,60610,IL
45,10 W Division St,Fast Food Restaurant,US,Chicago,United States,btwn N State St. & N Dearborn Pkwy.,1058,"['10 W Division St (btwn N State St. & N Dearborn Pkwy.)', 'Chicago, IL 60610', 'United States']",4aea6ef0f964a5208fbb21e3,"[{'label': 'display', 'lat': 41.903857905174476, 'lng': -87.6292410692123}]",41.903857905174476,-87.6292410692123,Five Faces Ice Cream Shop,,60610,IL
46,,Food Truck,US,Chicago,United States,,395,"['Chicago, IL 60610', 'United States']",4d5c1344fb186dcb6178fb9a,"[{'label': 'display', 'lat': 41.8977702495673, 'lng': -87.64314762405647}]",41.8977702495673,-87.64314762405647,The More Mobile,,60610,IL
47,,Zoo Exhibit,US,Chicago,United States,,1009,"['Chicago, IL 60610', 'United States']",5af4f1de6eda020039085ab1,"[{'label': 'display', 'lat': 41.901948, 'lng': -87.629339}]",41.901948,-87.629339,Two Zero Zero Five,,60610,IL
48,509 N Orleans St,Cupcake Shop,US,Chicago,United States,,1149,"['509 N Orleans St', 'Chicago, IL 60654', 'United States']",4e9db51f5503b4a7c15b8a33,"[{'label': 'display', 'lat': 41.891314254085785, 'lng': -87.63698444492204}]",41.891314254085785,-87.63698444492204,Sugar Bliss,,60654,IL
49,1201 N Clark St Ste A,Ice Cream Shop,US,Chicago,United States,,882,"['1201 N Clark St Ste A', 'Chicago, IL 60610', 'United States']",4f997b47d4f21823bb1f4c61,"[{'label': 'display', 'lat': 41.903970056180036, 'lng': -87.63153420181526}]",41.903970056180036,-87.63153420181526,Baskin-Robbins,,60610,IL
50,,Ice Cream Shop,US,Chicago,United States,,959,"['Chicago, IL', 'United States']",517f1043e4b06039af282fd1,"[{'label': 'display', 'lat': 41.90795668401511, 'lng': -87.63446915871032}]",41.90795668401511,-87.63446915871032,Swirlberry,,,IL
51,State St,Ice Cream Shop,US,Chicago,United States,Division,1012,"['State St (Division)', 'Chicago, IL', 'United States']",51b4df3c498ee77bf8e2b9bc,"[{'label': 'display', 'lat': 41.903947, 'lng': -87.629861}]",41.903947,-87.629861,Forever Yogurt,,,IL
52,1419 N Wells Street 1 South,Ice Cream Shop,US,Chicago,United States,,967,"['1419 N Wells Street 1 South', 'Chicago, IL 60610', 'United States']",593ad0876fa81f092b3256e3,"[{'label': 'display', 'lat': 41.908085196259286, 'lng': -87.63452963206137}]",41.908085196259286,-87.63452963206137,Jeni's Splendid Ice Creams,,60610,IL
53,,Dessert Shop,US,Chicago,United States,,970,"['Chicago, IL', 'United States']",4f694221e4b0cb40745e9ab3,"[{'label': 'display', 'lat': 41.905952581505964, 'lng': -87.63173661868878}]",41.905952581505964,-87.63173661868878,Kilman's,,,IL
54,1532 N Wells St,Dessert Shop,US,Chicago,United States,,1148,"['1532 N Wells St', 'Chicago, IL 60610', 'United States']",4beaeeab61aca59373608400,"[{'label': 'display', 'lat': 41.91012811721767, 'lng': -87.63476810485389}]",41.91012811721767,-87.63476810485389,The Fudge Pot,,60610,IL
55,,Ice Cream Shop,US,Chicago,United States,,1154,"['Chicago, IL 60610', 'United States']",4fde8e4fe4b06c9271336fc2,"[{'label': 'display', 'lat': 41.910251, 'lng': -87.63492}]",41.910251,-87.63492,Summer Strawberry,,60610,IL
56,6 W Maple St,Dessert Shop,US,Chicago,United States,,943,"['6 W Maple St', 'Chicago, IL 60610', 'United States']",50186d8ae4b09ef328bd1207,"[{'label': 'display', 'lat': 41.9029063, 'lng': -87.6303465}]",41.9029063,-87.6303465,Ambrosia,,60610,IL
57,1745 W Division St,Smoothie Shop,US,Chicago,United States,at N Wood St,388,"['1745 W Division St (at N Wood St)', 'Chicago, IL 60622', 'United States']",4ac91b9df964a520a6be20e3,"[{'label': 'display', 'lat': 41.903272034247856, 'lng': -87.67167666121321}]",41.903272034247856,-87.67167666121321,The Lifeway Kefir Shop,,60622,IL
58,2120 W Division St,Chocolate Shop,US,Chicago,United States,Hoyne,788,"['2120 W Division St (Hoyne)', 'Chicago, IL 60622', 'United States']",54c2e2ae498ebfa0506b12df,"[{'label': 'display', 'lat': 41.903210805528715, 'lng': -87.68064216441721}]",41.903210805528715,-87.68064216441721,Mr. Kite's Chocolate Shop,,60622,IL
59,1533 N. Daman,Frozen Yogurt Shop,US,Chicago,United States,,407,"['1533 N. Daman', 'Chicago, IL', 'United States']",4e3b1aa41495bf24a5bbe9eb,"[{'label': 'display', 'lat': 41.90346743184906, 'lng': -87.67200453888005}]",41.90346743184906,-87.67200453888005,Star Fruit,,,IL
60,1924 W North Ave,Ice Cream Shop,US,Chicago,United States,,1287,"['1924 W North Ave', 'Chicago, IL 60622', 'United States']",4aa439fdf964a520e74520e3,,41.91096772253801,-87.67641503623402,Cold Stone Creamery,,60622,IL
61,1709 W Division St,Snack Place,US,Chicago,United States,Paulina,445,"['1709 W Division St (Paulina)', 'Chicago, IL 60622', 'United States']",5939f636588e362daedb1b33,"[{'label': 'display', 'lat': 41.903421, 'lng': -87.669979}]",41.903421,-87.669979,Vinny D's,East Ukrainian Village,60622,IL
62,1916 W Chicago Ave,Bakery,US,Chicago,United States,btwn Winchester Ave. & Wolcott Ave.,498,"['1916 W Chicago Ave (btwn Winchester Ave. & Wolcott Ave.)', 'Chicago, IL 60622', 'United States']",5013db57e4b06bc0bd915c6f,"[{'label': 'display', 'lat': 41.8960153791624, 'lng': -87.67547719233515}]",41.8960153791624,-87.67547719233515,West Town Bakery & Diner,,60622,IL
63,1375 N Milwaukee Ave,Ice Cream Shop,US,Chicago,United States,N Wood St,793,"['1375 N Milwaukee Ave (N Wood St)', 'Chicago, IL 60622', 'United States']",5c293ebfc876c8002cd5a269,"[{'label': 'display', 'lat': 41.906928, 'lng': -87.671819}]",41.906928,-87.671819,Rakki Cafe,,60622,IL
64,1618 W Chicago Ave,Pie Shop,US,Chicago,United States,at N Ashland Ave,539,"['1618 W Chicago Ave (at N Ashland Ave)', 'Chicago, IL 60622', 'United States']",4b33cd91f964a520791f25e3,"[{'label': 'display', 'lat': 41.89608531651817, 'lng': -87.66812739021195}]",41.89608531651817,-87.66812739021195,Hoosier Mama Pie Co.,East Ukrainian Village,60622,IL
65,2034 W Division St,Bakery,US,Chicago,United States,btwn N Damen Ave & N Hoyne Ave,657,"['2034 W Division St (btwn N Damen Ave & N Hoyne Ave)', 'Chicago, IL 60622', 'United States']",4b92e6bcf964a520952534e3,"[{'label': 'display', 'lat': 41.90319577006248, 'lng': -87.67879746541307}]",41.90319577006248,-87.67879746541307,Caffe Gelato,,60622,IL
66,1843 W North Ave,Dessert Shop,US,Chicago,United States,,1192,"['1843 W North Ave', 'Chicago, IL 60622', 'United States']",5b7e0c75a0215b002c8c50c2,"[{'label': 'display', 'lat': 41.9104, 'lng': -87.67449}]",41.9104,-87.67449,Eli's Ark,Wicker Park,60622,IL
67,Mobile,Ice Cream Shop,US,Chicago,United States,,420,"['Mobile', 'Chicago, IL 60622', 'United States']",503a6dffe4b0b7277c523279,"[{'label': 'display', 'lat': 41.896242, 'lng': -87.673943}]",41.896242,-87.673943,Ice3,,60622,IL
68,1244 N Ashland Ave,Ice Cream Shop,US,Chicago,United States,at Milwaukee Ave,699,"['1244 N Ashland Ave (at Milwaukee Ave)', 'Chicago, IL 60622', 'United States']",4be5fae6910020a14bced314,"[{'label': 'display', 'lat': 41.90510630607605, 'lng': -87.66773879528046}]",41.90510630607605,-87.66773879528046,Baskin-Robbins,,60622,IL
69,1513 Milwaukee Ave.,Frozen Yogurt Shop,US,Chicago,United States,at N Honore St,1061,"['1513 Milwaukee Ave. (at N Honore St)', 'Chicago, IL 60622', 'United States']",518fb64d498e80c1ac976cf1,"[{'label': 'display', 'lat': 41.909097, 'lng': -87.675193}]",41.909097,-87.675193,Red Mango,,60622,IL
70,1141 N Ashland Ave,Ice Cream Shop,US,Chicago,United States,,539,"['1141 N Ashland Ave', 'Chicago, IL 60622', 'United States']",5990c7b66bd36b43bf48107b,"[{'label': 'display', 'lat': 41.902739, 'lng': -87.667101}]",41.902739,-87.667101,Conniption,,60622,IL
71,,Cupcake Shop,US,Chicago,United States,,808,"['Chicago, IL 60622', 'United States']",4cdee93d41ed224b3105dc3c,"[{'label': 'display', 'lat': 41.898382, 'lng': -87.681866}]",41.898382,-87.681866,The Foot clan Lair,,60622,IL
72,,Ice Cream Shop,US,Chicago,United States,Ashland & Thomas,590,"['Ashland & Thomas', 'Chicago, IL', 'United States']",4dcf47d01f6eb12270917437,"[{'label': 'display', 'lat': 41.90162479877472, 'lng': -87.665599}]",41.90162479877472,-87.665599,Vanilla's Heaven,,,IL
73,1505 N Milwaukee Ave,Ice Cream Shop,US,Chicago,United States,at N Honore St,1027,"['1505 N Milwaukee Ave (at N Honore St)', 'Chicago, IL 60622', 'United States']",54eb6f69498e75f95d61b00a,"[{'label': 'display', 'lat': 41.90882733007759, 'lng': -87.67494398464306}]",41.90882733007759,-87.67494398464306,Jeni's Splendid Ice Creams,,60622,IL
74,,Ice Cream Shop,US,Chicago,United States,,1409,"['Chicago, IL 60647', 'United States']",4fcd16fce4b07c4ac0a8c0ef,"[{'label': 'display', 'lat': 41.90602469478062, 'lng': -87.68712171499799}]",41.90602469478062,-87.68712171499799,Titos Ice Cream,,60647,IL
75,859 N Damen Ave,Ice Cream Shop,US,Chicago,United States,at Iowa,455,"['859 N Damen Ave (at Iowa)', 'Chicago, IL 60622', 'United States']",4c24ee20f7ced13a3ca9236d,"[{'label': 'display', 'lat': 41.8977377297036, 'lng': -87.67703642634378}]",41.8977377297036,-87.67703642634378,Black Dog Gelato,,60622,IL
76,724 N Ada St,Frozen Yogurt Shop,US,Chicago,United States,Chicago,989,"['724 N Ada St (Chicago)', 'Chicago, IL 60642', 'United States']",4e692f3b2271a1776962551f,"[{'label': 'display', 'lat': 41.89572328101089, 'lng': -87.66169405789826}]",41.89572328101089,-87.66169405789826,Figo's Frozen Yogurt,,60642,IL
77,1921 W North Ave,Dessert Shop,US,Chicago,United States,,1232,"['1921 W North Ave', 'Chicago, IL 60622', 'United States']",4e4e19d5bd4101d0d7a24499,"[{'label': 'display', 'lat': 41.910532, 'lng': -87.676011}]",41.910532,-87.676011,Sweet Thang,,60622,IL
78,1843 W North Ave,Dessert Shop,US,Chicago,United States,Honore St,1191,"['1843 W North Ave (Honore St)', 'Chicago, IL 60622', 'United States']",4e20ada8e4cdf685917d78c9,"[{'label': 'display', 'lat': 41.91038960231884, 'lng': -87.67452478408813}]",41.91038960231884,-87.67452478408813,Yo-lite,,60622,IL
79,2351 W Augusta Blvd,American Restaurant,US,Chicago,United States,Western,1179,"['2351 W Augusta Blvd (Western)', 'Chicago, IL 60622', 'United States']",594962058c812a4d0ecb6062,"[{'label': 'display', 'lat': 41.899373833, 'lng': -87.6865125}]",41.899373833,-87.6865125,Joey G's Mac N' Cheese,,60622,IL
80,1537 N Milwaukee Ave,Dessert Shop,US,Chicago,United States,,1115,"['1537 N Milwaukee Ave', 'Chicago, IL 60622', 'United States']",572004da498ef376bd688210,"[{'label': 'display', 'lat': 41.90944660166088, 'lng': -87.675975492298}]",41.90944660166088,-87.675975492298,Insomnia Cookies,,60622,IL
81,1924 W North Ave,Frozen Yogurt Shop,US,Chicago,United States,at N Winchester Ave,1241,"['1924 W North Ave (at N Winchester Ave)', 'Chicago, IL 60622', 'United States']",4bfc36953cebd13aa6a897d8,"[{'label': 'display', 'lat': 41.91056519760529, 'lng': -87.67627234079087}]",41.91056519760529,-87.67627234079087,Forever Yogurt,,60622,IL
84,1825 N Clark St,Ice Cream Shop,US,Chicago,United States,,1126,"['1825 N Clark St', 'Chicago, IL 60614', 'United States']",4e4e44b9bd4101d0d7a66a0d,"[{'label': 'display', 'lat': 41.914598, 'lng': -87.633825}]",41.914598,-87.633825,Baskin-Robbins,,60614,IL
85,1 E Delaware Pl,Cupcake Shop,US,Chicago,United States,at N State St,872,"['1 E Delaware Pl (at N State St)', 'Chicago, IL 60611', 'United States']",4a71e715f964a520d3d91fe3,"[{'label': 'display', 'lat': 41.89913210468974, 'lng': -87.62805386996936}]",41.89913210468974,-87.62805386996936,More Cupcakes,,60611,IL
86,835 N Michigan Ave,Ice Cream Shop,US,Chicago,United States,,982,"['835 N Michigan Ave', 'Chicago, IL 60611', 'United States']",5b4fb58a2f97ec002c838c21,"[{'label': 'display', 'lat': 41.89797, 'lng': -87.62356}]",41.89797,-87.62356,Scooped Cookie Dough Bar,,60611,IL
87,830 N Michigan Ave,Chocolate Shop,US,Chicago,United States,,1038,"['830 N Michigan Ave', 'Chicago, IL 60611', 'United States']",4a6fa490f964a520b0d61fe3,"[{'label': 'display', 'lat': 41.897382970225586, 'lng': -87.62458628256013}]",41.897382970225586,-87.62458628256013,Ghirardelli Ice Cream & Chocolate Shop,,60611,IL
89,,Dessert Shop,US,,United States,,479,"['Illinois', 'United States']",4e2f2cf6b0fbdc2b64febf72,"[{'label': 'display', 'lat': 41.90248912215928, 'lng': -87.6240923496145}]",41.90248912215928,-87.6240923496145,Ryba's Fudge Shop,,,Illinois
91,,Ice Cream Shop,US,Chicago,United States,,610,"['Chicago, IL 60610', 'United States']",4f8b3cade4b047d84bca4f91,"[{'label': 'display', 'lat': 41.90169088482452, 'lng': -87.62832432868791}]",41.90169088482452,-87.62832432868791,Whispers Gelato,,60610,IL
95,500 N Michigan Ave Ste 600,Dessert Shop,US,Chicago,United States,at E Illinois St,1044,"['500 N Michigan Ave Ste 600 (at E Illinois St)', 'Chicago, IL 60611', 'United States']",4e738e27a8095a7c425997bd,"[{'label': 'display', 'lat': 41.897321568698594, 'lng': -87.62483948146063}]",41.897321568698594,-87.62483948146063,Chicago Chocolate Tours,,60611,IL
96,50 E Walton St,Cupcake Shop,US,Chicago,United States,btwn Rush & Ernst,749,"['50 E Walton St (btwn Rush & Ernst)', 'Chicago, IL 60611', 'United States']",4c46fcd434999c74f64601fd,"[{'label': 'display', 'lat': 41.90000249642927, 'lng': -87.62630755649253}]",41.90000249642927,-87.62630755649253,Sprinkles Cupcakes,,60611,IL
97,900 N Michigan Ave,Dessert Shop,US,Chicago,United States,,795,"['900 N Michigan Ave', 'Chicago, IL 60611', 'United States']",4e4e3df2bd4101d0d7a5bdcc,"[{'label': 'display', 'lat': 41.899606, 'lng': -87.624198}]",41.899606,-87.624198,Ethel's Chocolate Lounge,,60611,IL
98,875 N Michigan Ave,American Restaurant,US,Chicago,United States,,887,"['875 N Michigan Ave', 'Chicago, IL 60611', 'United States']",4a8f5881f964a520021520e3,"[{'label': 'display', 'lat': 41.89876574754224, 'lng': -87.62423830810431}]",41.89876574754224,-87.62423830810431,The Cheesecake Factory,Streeterville,60611,IL
102,111 W North Ave,Ice Cream Shop,US,Chicago,United States,Clark and LaSalle,1132,"['111 W North Ave (Clark and LaSalle)', 'Chicago, IL 60610', 'United States']",4efa1da3e5e83430ad88982a,"[{'label': 'display', 'lat': 41.912497421968425, 'lng': -87.63656616210938}]",41.912497421968425,-87.63656616210938,Twist n' Twirl,,60610,IL
103,108 E Superior St,Dessert Shop,US,Chicago,United States,,1255,"['108 E Superior St', 'Chicago, IL 60611', 'United States']",4f322ba419836c91c7bd1a0b,"[{'label': 'display', 'lat': 41.895425, 'lng': -87.625099}]",41.895425,-87.625099,Vosges,,60611,IL
104,838 N State St,Dessert Shop,US,Chicago,United States,Chestnut,998,"['838 N State St (Chestnut)', 'Chicago, IL 60610', 'United States']",552ece2f498e3c3d9fbfda74,"[{'label': 'display', 'lat': 41.89800795962408, 'lng': -87.62828669109238}]",41.89800795962408,-87.62828669109238,Amorino,,60610,IL
106,42 E Chicago Ave,Dessert Shop,US,Chicago,United States,at N Wabash Ave,1117,"['42 E Chicago Ave (at N Wabash Ave)', 'Chicago, IL 60611', 'United States']",4ddd8bf8fa769803ef7e6247,"[{'label': 'display', 'lat': 41.896707826686956, 'lng': -87.62665982656186}]",41.896707826686956,-87.62665982656186,Forever Yogurt - Gold Coast,,60611,IL
107,111 W North Ave,Dessert Shop,US,Chicago,United States,Clark,756,"['111 W North Ave (Clark)', 'Chicago, IL 60610', 'United States']",4fb92578e4b06b008d5f745b,"[{'label': 'display', 'lat': 41.91120010233554, 'lng': -87.63217138866634}]",41.91120010233554,-87.63217138866634,Berrymoon,,60610,IL
109,1651 N Wells St,Dessert Shop,US,Chicago,United States,,1021,"['1651 N Wells St', 'Chicago, IL 60614', 'United States']",554e4e90498ebef356a23900,"[{'label': 'display', 'lat': 41.91264308946975, 'lng': -87.63471843241895}]",41.91264308946975,-87.63471843241895,cocoa + co.,,60614,IL
110,West Side of Foot Bridge,Frozen Yogurt Shop,US,Chicago,United States,Lake Shore Drive,980,"['West Side of Foot Bridge (Lake Shore Drive)', 'Chicago, IL 60614', 'United States']",501c6ebee4b0a1c5e7409c83,"[{'label': 'display', 'lat': 41.91526398821603, 'lng': -87.62809664728843}]",41.91526398821603,-87.62809664728843,Forever Yogurt Trailer,,60614,IL
111,835 N Michigan Ave Fl 7,Frozen Yogurt Shop,US,Chicago,United States,at Water Tower Place,941,"['835 N Michigan Ave Fl 7 (at Water Tower Place)', 'Chicago, IL 60611', 'United States']",4eaf3e43775bbddde7429ddc,"[{'label': 'display', 'lat': 41.89840472312077, 'lng': -87.62312829048058}]",41.89840472312077,-87.62312829048058,Red Mango,,60611,IL
112,1058 W Chicago Ave,Dessert Shop,US,Chicago,United States,at May St,916,"['1058 W Chicago Ave (at May St)', 'Chicago, IL 60642', 'United States']",508022b5e4b02081a18ae9ab,"[{'label': 'display', 'lat': 41.89623617260655, 'lng': -87.65499148693983}]",41.89623617260655,-87.65499148693983,Gelato Greco,,60642,IL
116,1441 W Montrose Ave,Ice Cream Shop,US,Chicago,United States,,302,"['1441 W Montrose Ave', 'Chicago, IL 60613', 'United States']",4f997b49d4f21823bb1f4d2d,"[{'label': 'display', 'lat': 41.96148166908928, 'lng': -87.66505087880867}]",41.96148166908928,-87.66505087880867,Baskin-Robbins,,60613,IL
117,,Ice Cream Shop,US,Chicago,United States,,691,"['Chicago, IL 60640', 'United States']",504bb530e4b03e711f554b01,"[{'label': 'display', 'lat': 41.96531480028968, 'lng': -87.66385169857391}]",41.96531480028968,-87.66385169857391,Mexican ice cream cart,,60640,IL
118,4547 N Broadway St,Ice Cream Shop,US,Chicago,United States,,1060,"['4547 N Broadway St', 'Chicago, IL 60640', 'United States']",4f91bda07beb818efa88427b,"[{'label': 'display', 'lat': 41.964424, 'lng': -87.656763}]",41.964424,-87.656763,Baskin-Robbins,,60640,IL
119,1813 W Montrose Ave,Dessert Shop,US,Chicago,United States,at N Ravenswood Ave,597,"['1813 W Montrose Ave (at N Ravenswood Ave)', 'Chicago, IL 60613', 'United States']",4aa59b05f964a520ee4820e3,"[{'label': 'display', 'lat': 41.96149121889289, 'lng': -87.67499272764286}]",41.96149121889289,-87.67499272764286,Margie's Candies,,60613,IL
120,1918 W Montrose Ave,Pastry Shop,US,Chicago,United States,at N Wolcott Ave,710,"['1918 W Montrose Ave (at N Wolcott Ave)', 'Chicago, IL 60613', 'United States']",4c35dc44ed37a59357207103,"[{'label': 'display', 'lat': 41.96203427880133, 'lng': -87.67619116731163}]",41.96203427880133,-87.67619116731163,Sweet Sensations Pastry,,60613,IL
121,4401 N Ravenswood Ave,Pie Shop,US,Chicago,United States,at W Montrose Ave,514,"['4401 N Ravenswood Ave (at W Montrose Ave)', 'Chicago, IL 60640', 'United States']",4b33afa0f964a520da1c25e3,"[{'label': 'display', 'lat': 41.96168257189465, 'lng': -87.67383649909829}]",41.96168257189465,-87.67383649909829,First Slice Pie Cafe,,60640,IL
122,1746 W Wilson Ave,Dessert Shop,US,Chicago,United States,,713,"['1746 W Wilson Ave', 'Chicago, IL 60640', 'United States']",51fad315498e000d491519ed,"[{'label': 'display', 'lat': 41.965279, 'lng': -87.67287}]",41.965279,-87.67287,Cookie Bar,,60640,IL
123,1743 W Lawrence Ave,Ice Cream Shop,US,Chicago,United States,N Hermitage,1070,"['1743 W Lawrence Ave (N Hermitage)', 'Chicago, IL 60640', 'United States']",4b67a136f964a520ad582be3,"[{'label': 'display', 'lat': 41.96883585, 'lng': -87.67303884029388}]",41.96883585,-87.67303884029388,Baskin-Robbins,,60640,IL
124,2024 W Montrose Ave,Frozen Yogurt Shop,US,Chicago,United States,Damen,1001,"['2024 W Montrose Ave (Damen)', 'Chicago, IL 60618', 'United States']",572662ce498e66056faa82ef,"[{'label': 'display', 'lat': 41.961586, 'lng': -87.679975}]",41.961586,-87.679975,ServeYoSelf,,60618,IL
125,2024 West Montrose Avenue,Frozen Yogurt Shop,US,Chicago,United States,,881,"['2024 West Montrose Avenue', 'Chicago, IL 60618', 'United States']",5577244a498ebd6300132ac4,"[{'label': 'display', 'lat': 41.96147976704837, 'lng': -87.67852864938497}]",41.96147976704837,-87.67852864938497,servyoself,,60618,IL
126,3759 N Racine Ave,Ice Cream Shop,US,Chicago,United States,,1273,"['3759 N Racine Ave', 'Chicago, IL 60613', 'United States']",5786cca7498e8bf79eaf849e,"[{'label': 'display', 'lat': 41.950726, 'lng': -87.658979}]",41.950726,-87.658979,Snow Junkie,,60613,IL
127,3811 N Southport Ave,Fast Food Restaurant,US,Chicago,United States,at W Grace St,1045,"['3811 N Southport Ave (at W Grace St)', 'Chicago, IL 60613', 'United States']",49c59517f964a52010571fe3,"[{'label': 'display', 'lat': 41.95110397536831, 'lng': -87.66384653289606}]",41.95110397536831,-87.66384653289606,Dairy Queen,,60613,IL
128,,Ice Cream Shop,US,Chicago,United States,,1194,"['Chicago, IL', 'United States']",4e6517c3fa76cd64cf5cd610,"[{'label': 'display', 'lat': 41.95114797080609, 'lng': -87.65982601937408}]",41.95114797080609,-87.65982601937408,Slogi's Popsicle Stand: Numero Dos,,,IL
129,,Ice Cream Shop,US,Chicago,United States,,744,"['Chicago, IL', 'United States']",5247673f498e13cb861a005d,"[{'label': 'display', 'lat': 41.924288, 'lng': -87.724479}]",41.924288,-87.724479,Paradise Ice Cream,,,IL
130,3740 W Fullerton Ave,Ice Cream Shop,US,Chicago,United States,,774,"['3740 W Fullerton Ave', 'Chicago, IL 60647', 'United States']",539ca659498e71ce2a5a8cc7,"[{'label': 'display', 'lat': 41.9246454613638, 'lng': -87.7210977590815}]",41.9246454613638,-87.7210977590815,La Michoacana,,60647,IL
131,,Ice Cream Shop,US,Chicago,United States,wisner and milwakuee,954,"['wisner and milwakuee', 'Chicago, IL 60618', 'United States']",5af4979b12c8f00039ffe9ac,"[{'label': 'display', 'lat': 41.9338, 'lng': -87.71412}]",41.9338,-87.71412,Paleteria Y Neveria Tamarindo Loco,,60618,IL
132,,Ice Cream Shop,US,Chicago,United States,,445,"['Chicago, IL', 'United States']",4e4ec3d0d4c0b6da5d745ccf,"[{'label': 'display', 'lat': 41.9269939, 'lng': -87.7256505}]",41.9269939,-87.7256505,Monarca Palateria,,,IL
133,3427 W Diversey Ave,Ice Cream Shop,US,Chicago,United States,,977,"['3427 W Diversey Ave', 'Chicago, IL 60647', 'United States']",4f997b51d4f21823bb1f50a4,"[{'label': 'display', 'lat': 41.93199113530865, 'lng': -87.71328085224127}]",41.93199113530865,-87.71328085224127,Baskin-Robbins,,60647,IL
134,,Ice Cream Shop,US,Chicago,United States,,970,"['Chicago, IL 60641', 'United States']",59a4becb26659b3ee3e97f0c,"[{'label': 'display', 'lat': 41.939524, 'lng': -87.727262}]",41.939524,-87.727262,Paleteria Y Neveria Tamarindo Loco,,60641,IL
135,3801 W Belmont Ave,Ice Cream Shop,US,Chicago,United States,,930,"['3801 W Belmont Ave', 'Chicago, IL 60618', 'United States']",4f997b52d4f21823bb1f50fb,"[{'label': 'display', 'lat': 41.93908821807939, 'lng': -87.7223387195379}]",41.93908821807939,-87.7223387195379,Baskin-Robbins,,60618,IL
137,3425 N Southport Ave,Candy Store,US,Chicago,United States,at Grace,637,"['3425 N Southport Ave (at Grace)', 'Chicago, IL 60657', 'United States']",4aee00f2f964a52027d121e3,"[{'label': 'display', 'lat': 41.944250271099925, 'lng': -87.66374272406632}]",41.944250271099925,-87.66374272406632,Candyality,,60657,IL
141,,Ice Cream Shop,US,Chicago,United States,,797,"['Chicago, IL 60657', 'United States']",5ac2ba9a23a2e62b771239ad,"[{'label': 'display', 'lat': 41.938862, 'lng': -87.668481}]",41.938862,-87.668481,Freezing Point,,60657,IL
142,3755 N Southport Ave,Ice Cream Shop,US,Chicago,United States,,1222,"['3755 N Southport Ave', 'Chicago, IL 60613', 'United States']",4e4e09b7bd4101d0d7a0c9ed,"[{'label': 'display', 'lat': 41.950024, 'lng': -87.664255}]",41.950024,-87.664255,Cold Stone Creamery,,60613,IL
143,1401 W Diversey Pkwy,Ice Cream Shop,US,Chicago,United States,at Southport,909,"['1401 W Diversey Pkwy (at Southport)', 'Chicago, IL 60614', 'United States']",4b783f8cf964a52070bf2ee3,"[{'label': 'display', 'lat': 41.93241183314322, 'lng': -87.66368128847458}]",41.93241183314322,-87.66368128847458,Cameron's,,60614,IL
144,3000 N Ashland Ave,Ice Cream Shop,US,Chicago,United States,Wellington,912,"['3000 N Ashland Ave (Wellington)', 'Chicago, IL 60657', 'United States']",524f2d1211d2b20deb3fe18e,"[{'label': 'display', 'lat': 41.936144641121174, 'lng': -87.66879751173057}]",41.936144641121174,-87.66879751173057,Baskin Robbins,,60657,IL
146,3746 N Southport Ave,Dessert Shop,US,Chicago,United States,,1188,"['3746 N Southport Ave', 'Chicago, IL 60613', 'United States']",4f32894319836c91c7e165f8,"[{'label': 'display', 'lat': 41.949744, 'lng': -87.664086}]",41.949744,-87.664086,Wrigleyville Ice Cream,,60613,IL
147,3552 N Southport Ave,Breakfast Spot,US,Chicago,United States,at W Addison St,887,"['3552 N Southport Ave (at W Addison St)', 'Chicago, IL 60657', 'United States']",4a75bc6af964a5201fe11fe3,"[{'label': 'display', 'lat': 41.946781746702904, 'lng': -87.66404649895333}]",41.946781746702904,-87.66404649895333,Southport Grocery & Cafe,,60657,IL
149,3721 N Southport Ave,Ice Cream Shop,US,Chicago,United States,,1166,"['3721 N Southport Ave', 'Chicago, IL 60613', 'United States']",58f1434aa8792165788f9a16,"[{'label': 'display', 'lat': 41.949538208466315, 'lng': -87.66405498788268}]",41.949538208466315,-87.66405498788268,Frio Gelato,,60613,IL
150,3054 N Greenview Ave,Bakery,US,Chicago,United States,,653,"['3054 N Greenview Ave', 'Chicago, IL 60657', 'United States']",5596fc6a498efaf9610c4c0e,"[{'label': 'display', 'lat': 41.937708, 'lng': -87.666313}]",41.937708,-87.666313,Smallcakes,,60657,IL
152,1121 W Oakdale Ave,Cupcake Shop,US,Chicago,United States,,562,"['1121 W Oakdale Ave', 'Chicago, IL 60657', 'United States']",4f99f731e4b066b3d2d661ca,"[{'label': 'display', 'lat': 41.934886, 'lng': -87.657228}]",41.934886,-87.657228,RMBD Dormitory,,60657,IL
153,3428 N Southport Ave,Dessert Shop,US,Chicago,United States,,655,"['3428 N Southport Ave', 'Chicago, IL 60657', 'United States']",4e398e736284250071befa58,"[{'label': 'display', 'lat': 41.944401, 'lng': -87.663834}]",41.944401,-87.663834,Jelly Belly RV,,60657,IL
155,3404 N Southport Ave,Ice Cream Shop,US,Chicago,United States,at W Roscoe St,599,"['3404 N Southport Ave (at W Roscoe St)', 'Chicago, IL 60657', 'United States']",5228f072bce6872aefde90d0,"[{'label': 'display', 'lat': 41.9436026060672, 'lng': -87.66402619739496}]",41.9436026060672,-87.66402619739496,Jeni's Splendid Ice Creams,,60657,IL
156,,Dessert Shop,US,Chicago,United States,,658,"['Chicago, IL', 'United States']",559ec125498e4d903bb9b0d9,"[{'label': 'display', 'lat': 41.944191, 'lng': -87.664223}]",41.944191,-87.664223,Veruca chocolates pop up shop,,,IL
157,3746 N Southport Ave,Frozen Yogurt Shop,US,Chicago,United States,,1248,"['3746 N Southport Ave', 'Chicago, IL 60613', 'United States']",5467fb76498ebcd5ac09e96b,"[{'label': 'display', 'lat': 41.95031040942062, 'lng': -87.66413618867418}]",41.95031040942062,-87.66413618867418,Froyo Chicago,,60613,IL
158,1658 W Belmont Ave,Ice Cream Shop,US,Chicago,United States,at Paulina St.,997,"['1658 W Belmont Ave (at Paulina St.)', 'Chicago, IL 60657', 'United States']",4a25f394f964a5209f7e1fe3,"[{'label': 'display', 'lat': 41.93970240591165, 'lng': -87.67096885038175}]",41.93970240591165,-87.67096885038175,Scooter's Frozen Custard,,60657,IL
159,3548 N Southport Ave,Ice Cream Shop,US,Chicago,United States,Addison,867,"['3548 N Southport Ave (Addison)', 'Chicago, IL 60657', 'United States']",534b3c3e498e82e651bcfb4b,"[{'label': 'display', 'lat': 41.946581631053135, 'lng': -87.66405397215095}]",41.946581631053135,-87.66405397215095,Anthony's Homemade Italian Ice,,60657,IL
169,545 W Diversey Pkwy,Dessert Shop,US,Chicago,United States,at N Cambridge Ave,949,"['545 W Diversey Pkwy (at N Cambridge Ave)', 'Chicago, IL 60614', 'United States']",4edfa9810e01ed773b85de6d,"[{'label': 'display', 'lat': 41.93287500276567, 'lng': -87.64307872313532}]",41.93287500276567,-87.64307872313532,KC Chocolatier,,60614,IL
190,705 W Belden Ave,Cupcake Shop,US,Chicago,United States,at Lincoln Ave.,261,"['705 W Belden Ave (at Lincoln Ave.)', 'Chicago, IL 60614', 'United States']",4a9ab547f964a520473220e3,"[{'label': 'display', 'lat': 41.92366828357339, 'lng': -87.64675920045049}]",41.92366828357339,-87.64675920045049,Swirlz Cupcakes,,60614,IL
191,,Food Truck,US,Chicago,United States,Shubert,26,"['Shubert', 'Chicago, IL 60654', 'United States']",4e8a2dc12c5b5dc29df63d76,"[{'label': 'display', 'lat': 41.92523455574356, 'lng': -87.64877015762266}]",41.92523455574356,-87.64877015762266,Forever Yogurt Truck (ForeverTruck),,60654,IL
192,1208 W Webster Ave,Bakery,US,Chicago,United States,at N Racine Ave,915,"['1208 W Webster Ave (at N Racine Ave)', 'Chicago, IL 60614', 'United States']",4a4bd81bf964a520caac1fe3,"[{'label': 'display', 'lat': 41.921710840558106, 'lng': -87.65861582379374}]",41.921710840558106,-87.65861582379374,Sweet Mandy B's,,60614,IL
193,2472 N Clark St,Dessert Shop,US,Chicago,United States,,628,"['2472 N Clark St', 'Chicago, IL 60614', 'United States']",5bd5fba7666116002cc55baa,"[{'label': 'display', 'lat': 41.927502, 'lng': -87.641704}]",41.927502,-87.641704,Warm Belly Bakery,,60614,IL
194,958 W Armitage Ave,Pastry Shop,US,Chicago,United States,N Shefield,897,"['958 W Armitage Ave (N Shefield)', 'Chicago, IL 60614', 'United States']",5c3ba86e535d6f002c36c021,"[{'label': 'display', 'lat': 41.918135, 'lng': -87.653289}]",41.918135,-87.653289,Le Macaron,,60614,IL
195,2536 N Clark St,Cupcake Shop,US,Chicago,United States,btwn Wrightwood & Deming,647,"['2536 N Clark St (btwn Wrightwood & Deming)', 'Chicago, IL 60614', 'United States']",4a090f11f964a52032741fe3,"[{'label': 'display', 'lat': 41.92885755299435, 'lng': -87.64241972258561}]",41.92885755299435,-87.64241972258561,Molly's Cupcakes,,60614,IL
196,2260 N Lincoln Ave,Dessert Shop,US,Chicago,United States,at W Belden Ave,364,"['2260 N Lincoln Ave (at W Belden Ave)', 'Chicago, IL 60614', 'United States']",51688824498ee0ac3f7e51ed,"[{'label': 'display', 'lat': 41.923177052345785, 'lng': -87.64563580644466}]",41.923177052345785,-87.64563580644466,Insomnia Cookies,,60614,IL
197,,Frozen Yogurt Shop,US,Chicago,United States,,633,"['Chicago, IL 60614', 'United States']",5b0c9e33e1f228002cc7e501,"[{'label': 'display', 'lat': 41.927532, 'lng': -87.641653}]",41.927532,-87.641653,Sweet! Froyo & Candy,,60614,IL
198,2544 N Clark St,Ice Cream Shop,US,Chicago,United States,Deming,648,"['2544 N Clark St (Deming)', 'Chicago, IL 60614', 'United States']",4c3bb2fa16cb2d7f434f03a9,"[{'label': 'display', 'lat': 41.92894893, 'lng': -87.6425017}]",41.92894893,-87.6425017,Chicago Creamery,,60614,IL
199,2026 N Sheffield Ave,Dessert Shop,US,Chicago,United States,Sheffield and Armitage,831,"['2026 N Sheffield Ave (Sheffield and Armitage)', 'Chicago, IL 60614', 'United States']",4bdc6be82a3a0f475dc1b2b6,"[{'label': 'display', 'lat': 41.918838, 'lng': -87.653398}]",41.918838,-87.653398,2026 N Sheffield,,60614,IL
201,2429 N Lincoln Ave,Ice Cream Shop,US,Chicago,United States,,87,"['2429 N Lincoln Ave', 'Chicago, IL 60614', 'United States']",4f32657519836c91c7d3b5a7,"[{'label': 'display', 'lat': 41.926102, 'lng': -87.649399}]",41.926102,-87.649399,Cold Stone Creamery,,60614,IL
204,2200 N Clark St,Dessert Shop,US,Chicago,United States,,932,"['2200 N Clark St', 'Chicago, IL 60614', 'United States']",4f321cd719836c91c7b7299d,"[{'label': 'display', 'lat': 41.922132, 'lng': -87.638453}]",41.922132,-87.638453,Treats Frozen Desserts,,60614,IL
205,958 W Armitage Ave,Dessert Shop,US,Chicago,United States,,892,"['958 W Armitage Ave', 'Chicago, IL 60614', 'United States']",548ca9df498eecad73087cb5,"[{'label': 'display', 'lat': 41.91821659608746, 'lng': -87.65335850890506}]",41.91821659608746,-87.65335850890506,Sugar Fixe Macaron,,60614,IL
207,900 W Armitage Ave,Ice Cream Shop,US,Chicago,United States,,834,"['900 W Armitage Ave', 'Chicago, IL 60614', 'United States']",5845f7f2abf6327ec67dbc86,"[{'label': 'display', 'lat': 41.91818563405966, 'lng': -87.65115828007421}]",41.91818563405966,-87.65115828007421,Jeni's Splendid Ice Creams,,60614,IL
210,951 W Armitage Ave,Dessert Shop,US,Chicago,United States,btwn Sheffield Ave. & Bissell St.,885,"['951 W Armitage Ave (btwn Sheffield Ave. & Bissell St.)', 'Chicago, IL 60614', 'United States']",4aad43fcf964a5205b5f20e3,"[{'label': 'display', 'lat': 41.91813935352691, 'lng': -87.65291966943069}]",41.91813935352691,-87.65291966943069,Vosges Haut-Chocolat,,60614,IL
211,2468 N Clark St,Ice Cream Shop,US,Chicago,United States,,652,"['2468 N Clark St', 'Chicago, IL 60614', 'United States']",4f43f2fc19836ed001915f3a,"[{'label': 'display', 'lat': 41.927299, 'lng': -87.641296}]",41.927299,-87.641296,Baskin-Robbins,,60614,IL
213,2149 N Halsted St,Ice Cream Shop,US,Chicago,United States,,468,"['2149 N Halsted St', 'Chicago, IL 60614', 'United States']",4e0fb02c1838f62321d242ed,"[{'label': 'display', 'lat': 41.92126869, 'lng': -87.64849638}]",41.92126869,-87.64849638,Star Fruit,,60614,IL
214,,Ice Cream Shop,US,Chicago,United States,,1065,"['Chicago, IL 60614', 'United States']",4fde3f3be4b09d4fccdc6054,"[{'label': 'display', 'lat': 41.91819028148796, 'lng': -87.65712318265489}]",41.91819028148796,-87.65712318265489,Tom and Wendees,,60614,IL
215,2301 N Clark St,Ice Cream Shop,US,Chicago,United States,,773,"['2301 N Clark St', 'Chicago, IL 60614', 'United States']",4c13e164a9c220a1ff96569d,"[{'label': 'display', 'lat': 41.924025, 'lng': -87.6396391}]",41.924025,-87.6396391,Skinny Cow,,60614,IL
217,,Dessert Shop,US,Chicago,United States,,781,"['Chicago, IL', 'United States']",51af7eea498e0c7f8a09f2c8,"[{'label': 'display', 'lat': 41.918447, 'lng': -87.648737}]",41.918447,-87.648737,Berco's,,,IL
218,1136 W Armitage Ave,Ice Cream Shop,US,Chicago,United States,,1062,"['1136 W Armitage Ave', 'Chicago, IL 60614', 'United States']",4bc3d019b492d13aad5aa960,"[{'label': 'display', 'lat': 41.91811995350921, 'lng': -87.65695945222741}]",41.91811995350921,-87.65695945222741,Tom & Wendee's Homemade Italian Ice,,60614,IL
220,2009 N Bissell St,Dessert Shop,US,Chicago,United States,at Armitage Ave.,853,"['2009 N Bissell St (at Armitage Ave.)', 'Chicago, IL 60614', 'United States']",4c6899d9428a0f47867e001b,"[{'label': 'display', 'lat': 41.91827366902575, 'lng': -87.65233180150487}]",41.91827366902575,-87.65233180150487,Annette's Homemade Italian Ice,,60614,IL
222,2200 N Lincoln Ave,Fast Food Restaurant,US,Chicago,United States,at W Webster St,539,"['2200 N Lincoln Ave (at W Webster St)', 'Chicago, IL 60614', 'United States']",4a6f7a9ff964a52045d61fe3,"[{'label': 'display', 'lat': 41.922010686850015, 'lng': -87.64421716332436}]",41.922010686850015,-87.64421716332436,Dairy Queen,,60614,IL
223,2224 N Clark St,Ice Cream Shop,US,Chicago,United States,at Webster Ave,883,"['2224 N Clark St (at Webster Ave)', 'Chicago, IL 60614', 'United States']",4c3a654c1e06d13a28527b3e,"[{'label': 'display', 'lat': 41.922689511221115, 'lng': -87.6387828093716}]",41.922689511221115,-87.6387828093716,Yoberri,,60614,IL
225,1211 W Webster Ave,Ice Cream Shop,US,Chicago,United States,,934,"['1211 W Webster Ave', 'Chicago, IL 60614', 'United States']",4e1f94e6aeb70263951d0282,"[{'label': 'display', 'lat': 41.921660641782495, 'lng': -87.65882760908653}]",41.921660641782495,-87.65882760908653,Bare Berry Co,,60614,IL
226,2618 N Clark St,Frozen Yogurt Shop,US,Chicago,United States,,678,"['2618 N Clark St', 'Chicago, IL 60614', 'United States']",54c25c82498eb5a67259d9a4,"[{'label': 'display', 'lat': 41.93014211145285, 'lng': -87.64352381299672}]",41.93014211145285,-87.64352381299672,Snow Dragon Shavery,,60614,IL
227,2236 N Sacramento Ave,Ice Cream Shop,US,Chicago,United States,at Lyndale St.,583,"['2236 N Sacramento Ave (at Lyndale St.)', 'Chicago, IL 60647', 'United States']",4bcdf9eacc8cd13abb80c3cf,"[{'label': 'display', 'lat': 41.92268664350419, 'lng': -87.70226892044886}]",41.92268664350419,-87.70226892044886,Miko's Italian Ice,,60647,IL
228,,Cupcake Shop,US,,United States,,539,"['Illinois', 'United States']",4d3fa8391bd2a1439538eb7c,"[{'label': 'display', 'lat': 41.920166977381434, 'lng': -87.70406720058509}]",41.920166977381434,-87.70406720058509,The Click Klack,,,Illinois
229,2529 N Milwaukee Ave,Ice Cream Shop,US,Chicago,United States,,630,"['2529 N Milwaukee Ave', 'Chicago, IL 60647', 'United States']",5883fd07561ded7f901a3b85,"[{'label': 'display', 'lat': 41.927126, 'lng': -87.703987}]",41.927126,-87.703987,Milk & Wood,,60647,IL
230,3755 W Armitage Ave,Dessert Shop,US,Chicago,United States,Hamlin,1207,"['3755 W Armitage Ave (Hamlin)', 'Chicago, IL 60647', 'United States']",50cb55c4e4b082174b7ea233,"[{'label': 'display', 'lat': 41.91719192945149, 'lng': -87.72154989589072}]",41.91719192945149,-87.72154989589072,Xocoatl Churros,,60647,IL
231,,Ice Cream Shop,US,Chicago,United States,,1000,"['Chicago, IL 60647', 'United States']",5b6e46cdb9a5a800398da1e9,"[{'label': 'display', 'lat': 41.924347, 'lng': -87.697334}]",41.924347,-87.697334,Pretty Cool,,60647,IL
233,2353 N California Ave,Ice Cream Shop,US,Chicago,United States,,995,"['2353 N California Ave', 'Chicago, IL 60647', 'United States']",5b6ce0a0fdb9a70039159fd9,"[{'label': 'display', 'lat': 41.92437141106168, 'lng': -87.6973969458242}]",41.92437141106168,-87.6973969458242,Pretty Cool Ice cream,,60647,IL
234,2815 W Armitage Ave,Ice Cream Shop,US,Chicago,United States,at Mozart,1120,"['2815 W Armitage Ave (at Mozart)', 'Chicago, IL 60647', 'United States']",4b92941af964a520360634e3,"[{'label': 'display', 'lat': 41.91746473188869, 'lng': -87.69804068670184}]",41.91746473188869,-87.69804068670184,Tastee Freez,,60647,IL
235,2662 N Sawyer Ave,Ice Cream Shop,US,Chicago,United States,btwn Wrightwood & Milwaukee,793,"['2662 N Sawyer Ave (btwn Wrightwood & Milwaukee)', 'Chicago, IL 60647', 'United States']",4bdca22e3904a593e5124f9e,"[{'label': 'display', 'lat': 41.930191548611425, 'lng': -87.70941562685886}]",41.930191548611425,-87.70941562685886,Heavenly Cafe & Gelato,,60647,IL
236,,Frozen Yogurt Shop,US,Chicago,United States,,926,"['Chicago, IL', 'United States']",536fd225498ec47bb142a070,"[{'label': 'display', 'lat': 41.92338087997689, 'lng': -87.69810980881884}]",41.92338087997689,-87.69810980881884,Yogurt Daze,,,IL
237,162 E Ohio St,Coffee Shop,US,Chicago,United States,at N St. Clair St,266,"['162 E Ohio St (at N St. Clair St)', 'Chicago, IL 60611', 'United States']",4a78a122f964a52019e61fe3,"[{'label': 'display', 'lat': 41.8925977381249, 'lng': -87.62296839527541}]",41.8925977381249,-87.62296839527541,Lavazza,Streeterville,60611,IL
238,200 E Ohio St,Ice Cream Shop,US,Chicago,United States,,261,"['200 E Ohio St', 'Chicago, IL 60611', 'United States']",4bd04cd077b29c747d6f8a82,"[{'label': 'display', 'lat': 41.89274678624066, 'lng': -87.6227080677056}]",41.89274678624066,-87.6227080677056,Baskin-Robbins,,60611,IL
239,43 E Ohio St,Dessert Shop,US,Chicago,United States,Wabash Ave,317,"['43 E Ohio St (Wabash Ave)', 'Chicago, IL 60611', 'United States']",52a23a7e11d24ba08bd89ec0,"[{'label': 'display', 'lat': 41.892491630048156, 'lng': -87.62644041925901}]",41.892491630048156,-87.62644041925901,Nutella Bar,,60611,IL
241,,Ice Cream Shop,US,Chicago,United States,,328,"['Chicago, IL 60611', 'United States']",579181c1cd10d382231b1fdd,"[{'label': 'display', 'lat': 41.89238817766209, 'lng': -87.62647638740889}]",41.89238817766209,-87.62647638740889,Eataly Il Gelato,,60611,IL
242,Inside Eataly,Ice Cream Shop,US,Chicago,United States,,312,"['Inside Eataly', 'Chicago, IL', 'United States']",5381021b498ef71aaae704b7,"[{'label': 'display', 'lat': 41.89251584429544, 'lng': -87.62639636858869}]",41.89251584429544,-87.62639636858869,Gelateria Alpina,,,IL
244,,Dessert Shop,US,Chicago,United States,,333,"['Chicago, IL 60611', 'United States']",5b6d0800037be1002cb1b52c,"[{'label': 'display', 'lat': 41.892365, 'lng': -87.626544}]",41.892365,-87.626544,Cannoli & Rosé All day,,60611,IL
247,,Food Truck,US,Chicago,United States,,346,"['Chicago, IL 60611', 'United States']",4c7802cedf08a1cdfbeed55d,"[{'label': 'display', 'lat': 41.891702, 'lng': -87.623891}]",41.891702,-87.623891,The Cupcake Gallery,,60611,IL
248,,Dessert Shop,US,Chicago,United States,In Nordstrom,398,"['In Nordstrom', 'Chicago, IL 60611', 'United States']",578e6c18498e0345ebdff314,"[{'label': 'display', 'lat': 41.89167, 'lng': -87.62653}]",41.89167,-87.62653,Sugarfina,,60611,IL
249,401 E Ontario St,Ice Cream Shop,US,Chicago,United States,,549,"['401 E Ontario St', 'Chicago, IL 60611', 'United States']",4f32387919836c91c7c207e0,"[{'label': 'display', 'lat': 41.893432, 'lng': -87.617852}]",41.893432,-87.617852,Baskin-Robbins,,60611,IL
251,233 N Michigan Avenue,Frozen Yogurt Shop,US,Chicago,United States,,888,"['233 N Michigan Avenue', 'Chicago, IL 60601', 'United States']",546cb59c498e20022c86ff6c,"[{'label': 'display', 'lat': 41.88683686101404, 'lng': -87.62367780667823}]",41.88683686101404,-87.62367780667823,Froyo Chicago,,60601,IL
252,520 N Michigan Ave,Candy Store,US,Chicago,United States,"The Shops at North Bridge, 2nd Fl",350,"['520 N Michigan Ave (The Shops at North Bridge, 2nd Fl)', 'Chicago, IL 60611', 'United States']",4aecc465f964a5200ecb21e3,"[{'label': 'display', 'lat': 41.89167937679965, 'lng': -87.62464242965888}]",41.89167937679965,-87.62464242965888,Vosges Haut-Chocolat,,60611,IL
255,30 W Chicago Ave,Ice Cream Shop,US,Chicago,United States,,509,"['30 W Chicago Ave', 'Chicago, IL 60654', 'United States']",4ddea91645dd033c393428d4,"[{'label': 'display', 'lat': 41.89241689367848, 'lng': -87.62945696732098}]",41.89241689367848,-87.62945696732098,Ben & Jerry's,,60654,IL
256,,Cupcake Shop,US,Chicago,United States,,447,"['Chicago, IL', 'United States']",534878ee498e53c7c173b08b,"[{'label': 'display', 'lat': 41.892051696777344, 'lng': -87.62027740478516}]",41.892051696777344,-87.62027740478516,cupcake van,,,IL
257,,Dessert Shop,US,Chicago,United States,,543,"['Chicago, IL', 'United States']",546fd3b3498e2e61fb1e43ca,"[{'label': 'display', 'lat': 41.891083, 'lng': -87.628459}]",41.891083,-87.628459,Guirardelli,,,IL
258,520 N Michigan Ave,Dessert Shop,US,Chicago,United States,,356,"['520 N Michigan Ave', 'Chicago, IL 60611', 'United States']",4e4e3df2bd4101d0d7a5bdc1,"[{'label': 'display', 'lat': 41.89160943031311, 'lng': -87.62441575527191}]",41.89160943031311,-87.62441575527191,Ethel's Chocolate Lounge,,60611,IL
259,,Ice Cream Shop,US,Chicago,United States,,710,"['Chicago, IL', 'United States']",52196df711d244e100186cc5,"[{'label': 'display', 'lat': 41.888786, 'lng': -87.621391}]",41.888786,-87.621391,Good Humor Ice Cream Truck,,,IL
261,635 N State St,Frozen Yogurt Shop,US,Chicago,United States,at E Erie St,333,"['635 N State St (at E Erie St)', 'Chicago, IL 60654', 'United States']",4e162491d22d334ac052225c,"[{'label': 'display', 'lat': 41.893733, 'lng': -87.62797}]",41.893733,-87.62797,Pinkberry,,60654,IL
263,400 N Michigan Ave,Chocolate Shop,US,Chicago,United States,,621,"['400 N Michigan Ave', 'Chicago, IL 60611', 'United States']",55920187498ecdbb2b627305,"[{'label': 'display', 'lat': 41.889229815922526, 'lng': -87.62448692774466}]",41.889229815922526,-87.62448692774466,Ghirardelli Ice Cream And Chocolate Shop - Wrigley,,60611,IL
264,177 N. Lake St,Dessert Shop,US,Chicago,United States,State,1093,"['177 N. Lake St (State)', 'Chicago, IL', 'United States']",4e2b5f33d164223a6981b9b2,"[{'label': 'display', 'lat': 41.885392, 'lng': -87.627986}]",41.885392,-87.627986,Yogen Fruz,,,IL
267,343 N Michigan Ave,Candy Store,US,Chicago,United States,at Lower Wacker Dr,725,"['343 N Michigan Ave (at Lower Wacker Dr)', 'Chicago, IL 60601', 'United States']",4acfc63ff964a520e6d520e3,"[{'label': 'display', 'lat': 41.88829029553873, 'lng': -87.62448278777985}]",41.88829029553873,-87.62448278777985,Fannie May Candies,,60601,IL
269,,Food Truck,US,Chicago,United States,,1057,"['Chicago, IL 60661', 'United States']",5022a63ce4b0600fbbd91109,"[{'label': 'display', 'lat': 41.885365312771775, 'lng': -87.62279086498104}]",41.885365312771775,-87.62279086498104,Chicago Cupcake,,60661,IL
270,25114 Grogans Mill Rd,Ice Cream Shop,US,Spring,United States,,958,"['25114 Grogans Mill Rd', 'Spring, IL 77380', 'United States']",4f997b5cd4f21823bb1f5522,"[{'label': 'display', 'lat': 41.886198, 'lng': -87.62452}]",41.886198,-87.62452,Baskin-Robbins,,77380,IL
271,,Ice Cream Shop,US,Chicago,United States,,205,"['Chicago, IL 60611', 'United States']",4fa43334e4b052ea28bdcca3,"[{'label': 'display', 'lat': 41.89313312553754, 'lng': -87.62526365410689}]",41.89313312553754,-87.62526365410689,Jove T's Ice Cream Shop,,60611,IL
272,27 Chicago Riverwalk,Ice Cream Shop,US,Chicago,United States,at N Dearborn St,940,"['27 Chicago Riverwalk (at N Dearborn St)', 'Chicago, IL 60601', 'United States']",5765bf92498eee3893688e64,"[{'label': 'display', 'lat': 41.887173328163456, 'lng': -87.62907474962012}]",41.887173328163456,-87.62907474962012,Frost Gelato,,60601,IL
274,419 E Illinois St,Cupcake Shop,US,Chicago,United States,McClurg Ct.,795,"['419 E Illinois St (McClurg Ct.)', 'Chicago, IL 60611', 'United States']",574dc8a9498e31fbcd8db060,"[{'label': 'display', 'lat': 41.890939, 'lng': -87.616143}]",41.890939,-87.616143,Molly's Cupcakes,,60611,IL
276,20 W Ohio St,Ice Cream Shop,US,Chicago,United States,,449,"['20 W Ohio St', 'Chicago, IL 60611', 'United States']",4f45145d19836ed001988106,"[{'label': 'display', 'lat': 41.8926718, 'lng': -87.6288215}]",41.8926718,-87.6288215,Cold Stone Creamery,,60611,IL
279,350 N La Salle Dr,Salad Place,US,Chicago,United States,at W Kinzie St,988,"['350 N La Salle Dr (at W Kinzie St)', 'Chicago, IL 60654', 'United States']",518ac82b498ef08bc2556002,"[{'label': 'display', 'lat': 41.88853729275701, 'lng': -87.63265388630052}]",41.88853729275701,-87.63265388630052,Freshii,,60654,IL
283,55 Riverwalk,American Restaurant,US,Chicago,United States,Between Dearborn and Clark,985,"['55 Riverwalk (Between Dearborn and Clark)', 'Chicago, IL 60601', 'United States']",5761910d498e99e0b1b4a468,"[{'label': 'display', 'lat': 41.88715716021941, 'lng': -87.63020249423012}]",41.88715716021941,-87.63020249423012,Tiny Hatt,,60601,IL
326,636 N Racine Ave,Bakery,US,Chicago,United States,btwn Erie & Ogden,859,"['636 N Racine Ave (btwn Erie & Ogden)', 'Chicago, IL 60642', 'United States']",4d9a3eeb7fedb60cbd6fec46,"[{'label': 'display', 'lat': 41.893337376417264, 'lng': -87.65731585261057}]",41.893337376417264,-87.65731585261057,Amy Beck Cake Design,,60642,IL
332,,Dessert Shop,US,Chicago,United States,,475,"['Chicago, IL 60613', 'United States']",5bf0c4a3916bc1002c69ceee,"[{'label': 'display', 'lat': 41.953182, 'lng': -87.677914}]",41.953182,-87.677914,Xurro,,60613,IL
333,2057 W Roscoe St,Ice Cream Shop,US,Chicago,United States,Hoyne,880,"['2057 W Roscoe St (Hoyne)', 'Chicago, IL 60618', 'United States']",4c4785eec047be9a12f13079,"[{'label': 'display', 'lat': 41.943126593644216, 'lng': -87.68071776872807}]",41.943126593644216,-87.68071776872807,Mario & Gino's Restaurant,,60618,IL
334,4010 N Western Ave,Ice Cream Shop,US,Chicago,United States,,636,"['4010 N Western Ave', 'Chicago, IL 60618', 'United States']",4f91bd9f7beb818efa8841cd,"[{'label': 'display', 'lat': 41.95429382748889, 'lng': -87.68895084162452}]",41.95429382748889,-87.68895084162452,Baskin-Robbins,,60618,IL
335,2009 W Roscoe St,Ice Cream Shop,US,Chicago,United States,at N Damen Ave,920,"['2009 W Roscoe St (at N Damen Ave)', 'Chicago, IL 60618', 'United States']",4fd39ddde4b0d43254cd584c,"[{'label': 'display', 'lat': 41.943170375851054, 'lng': -87.6787900783644}]",41.943170375851054,-87.6787900783644,Paciugo Gelato,,60618,IL
336,3308 N Western Ave,Frozen Yogurt Shop,US,Chicago,United States,,1158,"['3308 N Western Ave', 'Chicago, IL 60618', 'United States']",537d06df498e635a12b1a105,"[{'label': 'display', 'lat': 41.94151327896751, 'lng': -87.68883532001323}]",41.94151327896751,-87.68883532001323,truGurt Frozen Yogurt,,60618,IL
337,1755 W Addison St,Ice Cream Shop,US,Chicago,United States,,969,"['1755 W Addison St', 'Chicago, IL 60613', 'United States']",4f997b4bd4f21823bb1f4e0b,"[{'label': 'display', 'lat': 41.946894440308974, 'lng': -87.67236567644221}]",41.946894440308974,-87.67236567644221,Baskin-Robbins,,60613,IL
338,3338 N Western Ave,Dessert Shop,US,Chicago,United States,,1155,"['3338 N Western Ave', 'Chicago, IL 60618', 'United States']",50c4d4eee4b047e9d50fe095,"[{'label': 'display', 'lat': 41.94174229906108, 'lng': -87.68935516495382}]",41.94174229906108,-87.68935516495382,Fannie May,,60618,IL
341,338 W Armitage Ave,Dessert Shop,US,Chicago,United States,,914,"['338 W Armitage Ave', 'Chicago, IL 60614', 'United States']",4f32166b19836c91c7b48509,"[{'label': 'display', 'lat': 41.918343, 'lng': -87.637833}]",41.918343,-87.637833,Ben and Jerry's Ice Cream,,60614,IL
350,,Cupcake Shop,US,Chicago,United States,,772,"['Chicago, IL 60614', 'United States']",4cf59d8666585481a9f1c498,"[{'label': 'display', 'lat': 41.911080635834566, 'lng': -87.64198641472929}]",41.911080635834566,-87.64198641472929,Stacey's Bake Shop,,60614,IL
380,,Ice Cream Shop,US,Chicago,United States,,1330,"['Chicago, IL 60614', 'United States']",5942ef77f870fd7781eeacd8,"[{'label': 'display', 'lat': 41.919292, 'lng': -87.633742}]",41.919292,-87.633742,Ice Cream Shoppe,,60614,IL
383,,Frozen Yogurt Shop,US,Chicago,United States,,1060,"['Chicago, IL', 'United States']",520d238511d2af267c20a781,"[{'label': 'display', 'lat': 41.91545104980469, 'lng': -87.63005065917969}]",41.91545104980469,-87.63005065917969,Frozen Yogurt @North Avenue Beach,,,IL
410,2051 N California Ave,Pie Shop,US,Chicago,United States,at N Point St,357,"['2051 N California Ave (at N Point St)', 'Chicago, IL 60647', 'United States']",4ecd9a09722e01c57f2cce34,"[{'label': 'display', 'lat': 41.91901396975405, 'lng': -87.69717275730295}]",41.91901396975405,-87.69717275730295,Bang Bang Pie Shop,,60647,IL
412,2247 N Milwaukee Ave,Ice Cream Shop,US,Chicago,United States,,488,"['2247 N Milwaukee Ave', 'Chicago, IL 60647', 'United States']",4f91bd9b7beb818efa883f1f,"[{'label': 'display', 'lat': 41.92198874395034, 'lng': -87.69471210978921}]",41.92198874395034,-87.69471210978921,Baskin-Robbins,,60647,IL
418,,Dessert Shop,US,Chicago,United States,,950,"['Chicago, IL', 'United States']",5477726a498eb26d3bf1f527,"[{'label': 'display', 'lat': 41.912879, 'lng': -87.697245}]",41.912879,-87.697245,Candy's Concoctions,,,IL
419,,Dessert Shop,US,Chicago,United States,,768,"['Chicago, IL', 'United States']",5158c90fe4b0781cc71fd5c9,"[{'label': 'display', 'lat': 41.924858997028714, 'lng': -87.69272438627522}]",41.924858997028714,-87.69272438627522,moooh dulce,,,IL
420,2745 W Armitage Ave,Dessert Shop,US,Chicago,United States,,519,"['2745 W Armitage Ave', 'Chicago, IL 60647', 'United States']",4cc8b132e7926dcbacab5777,"[{'label': 'display', 'lat': 41.917474973757635, 'lng': -87.69648308178067}]",41.917474973757635,-87.69648308178067,Katherine Anne Confections,,60647,IL
427,2230 N Cannon Dr,Ice Cream Shop,US,Chicago,United States,,468,"['2230 N Cannon Dr', 'Chicago, IL 60614', 'United States']",4e4e354fbd4101d0d7a4d3bc,"[{'label': 'display', 'lat': 41.921949275964096, 'lng': -87.63396314511125}]",41.921949275964096,-87.63396314511125,Dippin' Dots,,60614,IL
428,Lincoln Park Zoo,Ice Cream Shop,US,Chicago,United States,,420,"['Lincoln Park Zoo', 'Chicago, IL', 'United States']",538246a8498ec7f8330bf216,"[{'label': 'display', 'lat': 41.92073059082031, 'lng': -87.6332015991211}]",41.92073059082031,-87.6332015991211,Polar Cap Ice Cream,,,IL
489,"Merchandise Mart, Second Floor",Frozen Yogurt Shop,US,Chicago,United States,,557,"['Merchandise Mart, Second Floor', 'Chicago, IL 60654', 'United States']",58657d81469aef7d536a60fa,"[{'label': 'display', 'lat': 41.88774542236498, 'lng': -87.63660016192834}]",41.88774542236498,-87.63660016192834,The Lifeway Kefir Shop,,60654,IL
496,174 N Franklin St,Dessert Shop,US,Chicago,United States,,743,"['174 N Franklin St', 'Chicago, IL 60606', 'United States']",51226b98e4b07e643d1e8daf,"[{'label': 'display', 'lat': 41.88576471611642, 'lng': -87.6352884069392}]",41.88576471611642,-87.6352884069392,Whimsical Candy,,60606,IL
499,10 S Dearborn St,Frozen Yogurt Shop,US,Chicago,United States,at Madison,1281,"['10 S Dearborn St (at Madison)', 'Chicago, IL 60603', 'United States']",4f283826e4b0d161c263d1cd,"[{'label': 'display', 'lat': 41.88126402212375, 'lng': -87.63009316053862}]",41.88126402212375,-87.63009316053862,Red Mango,,60603,IL
503,108 N State St,Frozen Yogurt Shop,US,Chicago,United States,W Randolph St,1045,"['108 N State St (W Randolph St)', 'Chicago, IL 60602', 'United States']",4b475fa5f964a520263026e3,"[{'label': 'display', 'lat': 41.8837857356299, 'lng': -87.6289968375569}]",41.8837857356299,-87.6289968375569,The Lifeway Kefir Shop,,60602,IL
505,131 N Clinton (French Market),Dessert Shop,US,Chicago,United States,Randolph,1072,"['131 N Clinton (French Market) (Randolph)', 'Chicago, IL', 'United States']",54874df9498e6882313bf27e,"[{'label': 'display', 'lat': 41.884130728580985, 'lng': -87.64075771709956}]",41.884130728580985,-87.64075771709956,Lolli and Pops,,,IL
506,10 S La Salle St,Chocolate Shop,US,Chicago,United States,btw. W. Monroe St. and W. Madison St.,1214,"['10 S La Salle St (btw. W. Monroe St. and W. Madison St.)', 'Chicago, IL 60603', 'United States']",4b76f882f964a520ea6f2ee3,"[{'label': 'display', 'lat': 41.88154073406345, 'lng': -87.63246176619229}]",41.88154073406345,-87.63246176619229,Godiva Chocolatier,,60603,IL
508,,Ice Cream Shop,US,Chicago,United States,,1037,"['Chicago, IL 60602', 'United States']",593afa010f013c66eac15975,"[{'label': 'display', 'lat': 41.883617, 'lng': -87.62984}]",41.883617,-87.62984,Crave Bar,The Loop,60602,IL
510,"Block 37, Pedway",Ice Cream Shop,US,Chicago,United States,108 N State,1053,"['Block 37, Pedway (108 N State)', 'Chicago, IL', 'United States']",4bf6eb8cb182c9b6fcc2745a,"[{'label': 'display', 'lat': 41.88379326695388, 'lng': -87.62874605886705}]",41.88379326695388,-87.62874605886705,Star Fruit,,,IL
515,600 W Kinzie St,Building,US,Chicago,United States,at N Desplaines St,908,"['600 W Kinzie St (at N Desplaines St)', 'Chicago, IL 60654', 'United States']",4cd21afbf6378cfa11f1bfd6,"[{'label': 'display', 'lat': 41.889004227886794, 'lng': -87.64404862492722}]",41.889004227886794,-87.64404862492722,Blommer Chocolate Co,,60654,IL
519,400-414 N Milwaukee Ave,Dessert Shop,US,Chicago,United States,,934,"['400-414 N Milwaukee Ave', 'Chicago, IL 60654', 'United States']",4d25f60373913704f5effb35,"[{'label': 'display', 'lat': 41.88906887575746, 'lng': -87.6444292564911}]",41.88906887575746,-87.6444292564911,Chocolate Hill,,60654,IL
520,225 w. Wacker,Dessert Shop,US,Chicago,United States,Franklin,655,"['225 w. Wacker (Franklin)', 'Chicago, IL', 'United States']",4c58a1b8d3aee21e9d556655,"[{'label': 'display', 'lat': 41.88654544454793, 'lng': -87.63505227219217}]",41.88654544454793,-87.63505227219217,Mona's Candy Shop,,,IL
524,108 N State St,Bakery,US,Chicago,United States,btwn W Randolph St & W Washington St,1039,"['108 N State St (btwn W Randolph St & W Washington St)', 'Chicago, IL 60602', 'United States']",4e667204091afcffda218e18,"[{'label': 'display', 'lat': 41.88418724189101, 'lng': -87.62807811436072}]",41.88418724189101,-87.62807811436072,Magnolia Bakery,,60602,IL
529,111 N State St,Dessert Shop,US,Chicago,United States,Randolph and Wabash,1118,"['111 N State St (Randolph and Wabash)', 'Chicago, IL 60602', 'United States']",4cbc96e64495721e94795b7a,"[{'label': 'display', 'lat': 41.88427152718303, 'lng': -87.62612186854703}]",41.88427152718303,-87.62612186854703,Sarah's Pastries and Candies,,60602,IL
535,115 N Wabash Ave,Cupcake Shop,US,Chicago,United States,at E Washington St,1179,"['115 N Wabash Ave (at E Washington St)', 'Chicago, IL 60602', 'United States']",4b7c6f13f964a52011932fe3,"[{'label': 'display', 'lat': 41.88358985367272, 'lng': -87.62613771764349}]",41.88358985367272,-87.62613771764349,Sugar Bliss Cake Boutique,,60602,IL
537,908 W Randolph St,Ice Cream Shop,US,Chicago,United States,Peoria St,1094,"['908 W Randolph St (Peoria St)', 'Chicago, IL 60607', 'United States']",5cad20105c6838002cc19174,"[{'label': 'display', 'lat': 41.884616, 'lng': -87.650255}]",41.884616,-87.650255,Jeni's Splendid Ice Creams,,60607,IL
540,"832 W Randolph Street Chicago, IL, 60607",Dessert Shop,US,Chicago,United States,Randolph,1079,"['832 W Randolph Street Chicago, IL, 60607 (Randolph)', 'Chicago, IL 60607', 'United States']",561afeec498ef82a50f5e6ca,"[{'label': 'display', 'lat': 41.884760363318634, 'lng': -87.6485576789726}]",41.884760363318634,-87.6485576789726,Bombobar,,60607,IL
541,901 W Washington Blvd,Ice Cream Shop,US,Chicago,United States,,1487,"['901 W Washington Blvd', 'Chicago, IL 60607', 'United States']",4f997b5bd4f21823bb1f5486,"[{'label': 'display', 'lat': 41.88110887541482, 'lng': -87.65082724402772}]",41.88110887541482,-87.65082724402772,Baskin-Robbins,,60607,IL
543,,Dessert Shop,US,Chicago,United States,,1228,"['Chicago, IL 60607', 'United States']",5ade6ed52be42569a1386588,"[{'label': 'display', 'lat': 41.883411, 'lng': -87.64864}]",41.883411,-87.64864,Dessert Dealer,,60607,IL
546,555 W Lake St,Ice Cream Shop,US,Chicago,United States,,1164,"['555 W Lake St', 'Chicago, IL 60661', 'United States']",4f91bda57beb818efa8843f5,"[{'label': 'display', 'lat': 41.88561324941751, 'lng': -87.64192859440578}]",41.88561324941751,-87.64192859440578,Baskin-Robbins,,60661,IL
547,,Dessert Shop,US,Chicago,United States,,1139,"['Chicago, IL 60661', 'United States']",5b70d52a1de765002c128a43,"[{'label': 'display', 'lat': 41.884362, 'lng': -87.64699}]",41.884362,-87.64699,itsapop,,60661,IL
556,2950 N Oakley Ave,Dessert Shop,US,Chicago,United States,btwn Webster & Elston,945,"['2950 N Oakley Ave (btwn Webster & Elston)', 'Chicago, IL 60618', 'United States']",4d4b1478c0d05481aba60019,"[{'label': 'display', 'lat': 41.93517847426448, 'lng': -87.68579314534536}]",41.93517847426448,-87.68579314534536,Vosges Haut-Chocolat,,60618,IL
567,2187 N Clybourn Ave,Ice Cream Shop,US,Chicago,United States,,556,"['2187 N Clybourn Ave', 'Chicago, IL 60614', 'United States']",4e4e09b6bd4101d0d7a0c9cc,"[{'label': 'display', 'lat': 41.921272, 'lng': -87.664114}]",41.921272,-87.664114,Cold Stone Creamery,,60614,IL
582,2223 N Clybourn Ave,Flower Shop,US,Chicago,United States,,642,"['2223 N Clybourn Ave', 'Chicago, IL 60614', 'United States']",4bae1daef964a52022863be3,"[{'label': 'display', 'lat': 41.922170440338505, 'lng': -87.66516646077861}]",41.922170440338505,-87.66516646077861,Edible Arrangements,,60614,IL
586,2636 W Chicago Ave,Ice Cream Shop,US,Chicago,United States,btwn N Washtenaw Ave & N Rockwell St,370,"['2636 W Chicago Ave (btwn N Washtenaw Ave & N Rockwell St)', 'Chicago, IL 60622', 'United States']",558f4f9d498e642c86f96736,"[{'label': 'display', 'lat': 41.89571, 'lng': -87.693115}]",41.89571,-87.693115,Ruth & Phil's Gourmet Ice Cream,,60622,IL
587,,Food Truck,US,Chicago,United States,,588,"['Chicago, IL 60612', 'United States']",4dade04e6e81e2dffdbbf99b,"[{'label': 'display', 'lat': 41.893064054703785, 'lng': -87.68341991534159}]",41.893064054703785,-87.68341991534159,Sweet Ride Chi,,60612,IL
588,2500 W Chicago Ave,Cupcake Shop,US,Chicago,United States,,261,"['2500 W Chicago Ave', 'Chicago, IL 60622', 'United States']",4ceb5f954cdf8eec4f8f52d1,"[{'label': 'display', 'lat': 41.89535453, 'lng': -87.69049670000001}]",41.89535453,-87.69049670000001,The Pink Castle,,60622,IL
589,2627 W Division St,Sandwich Place,US,Chicago,United States,,1114,"['2627 W Division St', 'Chicago, IL 60622', 'United States']",5b2c0747826444002ccd1264,"[{'label': 'display', 'lat': 41.90279, 'lng': -87.693372}]",41.90279,-87.693372,Antojos & Shakes,,60622,IL
590,1046 N California Ave,Dessert Shop,US,Chicago,United States,btwn Cortez & Thomas,1000,"['1046 N California Ave (btwn Cortez & Thomas)', 'Chicago, IL 60622', 'United States']",4b6122e4f964a520d20a2ae3,"[{'label': 'display', 'lat': 41.90066895, 'lng': -87.69682}]",41.90066895,-87.69682,Tipsycake,,60622,IL
591,1000 N California Ave,Dessert Shop,US,Chicago,United States,at Augusta Blvd,880,"['1000 N California Ave (at Augusta Blvd)', 'Chicago, IL 60622', 'United States']",55abe410498ed3bd8fbf9792,"[{'label': 'display', 'lat': 41.89933620163525, 'lng': -87.69689145817068}]",41.89933620163525,-87.69689145817068,Spinning J Bakery and Soda Fountain,,60622,IL
594,2136 W Fulton St,Dessert Shop,US,Chicago,United States,,1030,"['2136 W Fulton St', 'Chicago, IL 60612', 'United States']",50a821f9e4b0f10a1af5bc4a,"[{'label': 'display', 'lat': 41.886679, 'lng': -87.681439}]",41.886679,-87.681439,Canady Le Chocolatier,,60612,IL
595,2500 W Haddon,Ice Cream Shop,US,Chicago,United States,Campbell,1041,"['2500 W Haddon (Campbell)', 'Chicago, IL 60622', 'United States']",5934c975e65d0c462971bbc7,"[{'label': 'display', 'lat': 41.902145, 'lng': -87.68785}]",41.902145,-87.68785,Monticarlo Ice Cream Truck,,60622,IL
596,4701 N Lincoln Ave,Frozen Yogurt Shop,US,Chicago,United States,at W Leland Ave,587,"['4701 N Lincoln Ave (at W Leland Ave)', 'Chicago, IL 60625', 'United States']",4f493c27e4b06a7742eb1e2c,"[{'label': 'display', 'lat': 41.96668264588806, 'lng': -87.68710130363462}]",41.96668264588806,-87.68710130363462,Yogurt Square,,60625,IL
597,4350 N Leavitt St,Dessert Shop,US,Chicago,United States,,839,"['4350 N Leavitt St', 'Chicago, IL 60618', 'United States']",5828bb707b454a2e7d76319e,"[{'label': 'display', 'lat': 41.961090151602946, 'lng': -87.68373660051361}]",41.961090151602946,-87.68373660051361,Cookie Spin,,60618,IL
598,4819 N Western Ave,Ice Cream Shop,US,Chicago,United States,,714,"['4819 N Western Ave', 'Chicago, IL 60625', 'United States']",4f3271b619836c91c7d86b5f,"[{'label': 'display', 'lat': 41.968687, 'lng': -87.688908}]",41.968687,-87.688908,Baskin-Robbins,,60625,IL
599,2458 W Montrose Ave,Bakery,US,Chicago,United States,,1166,"['2458 W Montrose Ave', 'Chicago, IL 60618', 'United States']",4ab29c6bf964a5209d6b20e3,"[{'label': 'display', 'lat': 41.96132742460512, 'lng': -87.6909573311331}]",41.96132742460512,-87.6909573311331,Lutz Pastry Cafe,,60618,IL
607,4709 N Lincoln Ave,Ice Cream Shop,US,Chicago,United States,Leland,598,"['4709 N Lincoln Ave (Leland)', 'Chicago, IL 60625', 'United States']",4bf733d58d30d13a74a9fe17,"[{'label': 'display', 'lat': 41.96691961, 'lng': -87.687327}]",41.96691961,-87.687327,Coldstone,,60625,IL
608,4709 N Lincoln Ave,Dessert Shop,US,Chicago,United States,,603,"['4709 N Lincoln Ave', 'Chicago, IL 60625', 'United States']",4c82fcec74d7b60ccc3d86d8,"[{'label': 'display', 'lat': 41.96688355, 'lng': -87.68738233333335}]",41.96688355,-87.68738233333335,Coldstone Creamery,,60625,IL
609,,Ice Cream Shop,US,Chicago,United States,,586,"['Chicago, IL 60625', 'United States']",4c544a0f479fc92872b6e292,"[{'label': 'display', 'lat': 41.972623560953835, 'lng': -87.68412756482412}]",41.972623560953835,-87.68412756482412,Palazzolo's Artisan Gelato & Sorbetto,,60625,IL
610,4917 N Lincoln Ave,Café,US,Chicago,United States,,889,"['4917 N Lincoln Ave', 'Chicago, IL 60625', 'United States']",4db102bc6a231f2e4a618543,"[{'label': 'display', 'lat': 41.971277, 'lng': -87.690207}]",41.971277,-87.690207,Hilary's Cookies,,60625,IL
615,600 East Grand Ave,Ice Cream Shop,US,Chicago,United States,,957,"['600 East Grand Ave', 'Chicago, IL 60611', 'United States']",55c8d3dd498eb5cf96243a02,"[{'label': 'display', 'lat': 41.8917275727576, 'lng': -87.6085692644119}]",41.8917275727576,-87.6085692644119,Ben & Jerry's,,60611,IL
619,151 E Randolph Street,Frozen Yogurt Shop,US,Chicago,United States,,1022,"['151 E Randolph Street', 'Chicago, IL 60606', 'United States']",4f9c5153e4b0de6267dceac1,"[{'label': 'display', 'lat': 41.884264, 'lng': -87.624808}]",41.884264,-87.624808,Red Mango,,60606,IL
621,600 E Grand Ave,Mexican Restaurant,US,Chicago,United States,at Navy Pier Food Court,960,"['600 E Grand Ave (at Navy Pier Food Court)', 'Chicago, IL 60611', 'United States']",562e671f498e7ab0c6bad2e9,"[{'label': 'display', 'lat': 41.891494, 'lng': -87.608573}]",41.891494,-87.608573,Xurro,,60611,IL
622,600 E Grand Ave,Chocolate Shop,US,Chicago,United States,Navy Pier,976,"['600 E Grand Ave (Navy Pier)', 'Chicago, IL 60611', 'United States']",4bedadf2e24d20a1eed17114,"[{'label': 'display', 'lat': 41.891303777448165, 'lng': -87.60841926730913}]",41.891303777448165,-87.60841926730913,Ryba's Fudge Shop,,60611,IL
623,117 N Wabash Ave,Dessert Shop,US,Chicago,United States,btwn E Randolph St & E Washington St,1133,"['117 N Wabash Ave (btwn E Randolph St & E Washington St)', 'Chicago, IL 60602', 'United States']",4c79438e97028cfa0f67dafe,"[{'label': 'display', 'lat': 41.883531, 'lng': -87.625902}]",41.883531,-87.625902,Fannie May,,60602,IL
633,75 E Washington St,Ice Cream Shop,US,Chicago,United States,,1139,"['75 E Washington St', 'Chicago, IL 60602', 'United States']",4f997b58d4f21823bb1f53af,"[{'label': 'display', 'lat': 41.8832030709877, 'lng': -87.62505242587099}]",41.8832030709877,-87.62505242587099,Baskin-Robbins,,60602,IL
635,,Frozen Yogurt Shop,US,Chicago,United States,,958,"['Chicago, IL', 'United States']",57478392498e0995920e65a7,"[{'label': 'display', 'lat': 41.891502, 'lng': -87.608591}]",41.891502,-87.608591,Snow Dragon Shavery,,,IL
637,600 E Grand Ave,Dessert Shop,US,Chicago,United States,at Navy Pier,1092,"['600 E Grand Ave (at Navy Pier)', 'Chicago, IL 60611', 'United States']",4c3a5fba1e06d13a4d477b3e,"[{'label': 'display', 'lat': 41.89140810671983, 'lng': -87.60697603225708}]",41.89140810671983,-87.60697603225708,Churro Factory,,60611,IL
640,700 E Grand Ave,Ice Cream Shop,US,Chicago,United States,,1242,"['700 E Grand Ave', 'Chicago, IL 60611', 'United States']",5765b8c0498edaf26ae14fb9,"[{'label': 'display', 'lat': 41.891139, 'lng': -87.605201}]",41.891139,-87.605201,The Original Rainbow Cone,,60611,IL
641,600 East Grand Ave,Ice Cream Shop,US,Chicago,United States,,1058,"['600 East Grand Ave', 'Chicago, IL 60611', 'United States']",4bf86a434a67c928136725cf,"[{'label': 'display', 'lat': 41.891107, 'lng': -87.60746}]",41.891107,-87.60746,Dippin' Dots,,60611,IL
697,2741 N Elston Ave,Frozen Yogurt Shop,US,Chicago,United States,btwn W Diversey Pkwy & W Logan Blvd,882,"['2741 N Elston Ave (btwn W Diversey Pkwy & W Logan Blvd)', 'Chicago, IL 60647', 'United States']",521e81a311d2dc279f6526ad,"[{'label': 'display', 'lat': 41.931247257454956, 'lng': -87.68612650994281}]",41.931247257454956,-87.68612650994281,Forever Yogurt,,60647,IL
700,2775 N Elston Ave,Dessert Shop,US,Chicago,United States,,876,"['2775 N Elston Ave', 'Chicago, IL 60647', 'United States']",4deea39ed4c057aa313bf3e9,"[{'label': 'display', 'lat': 41.931908, 'lng': -87.686921}]",41.931908,-87.686921,Niko's Drive-In,,60647,IL
723,1649 N Damen Ave,Ice Cream Shop,US,Chicago,United States,,162,"['1649 N Damen Ave', 'Chicago, IL 60647', 'United States']",4f325b6319836c91c7cfcae5,"[{'label': 'display', 'lat': 41.911928, 'lng': -87.677259}]",41.911928,-87.677259,Dairy Queen/Orange Julius,,60647,IL
727,1651 N Western Ave,Ice Cream Shop,US,Chicago,United States,at Wabansia,798,"['1651 N Western Ave (at Wabansia)', 'Chicago, IL 60647', 'United States']",51dedd61498ea6eb2011cdb2,"[{'label': 'display', 'lat': 41.91092735047994, 'lng': -87.68718429159745}]",41.91092735047994,-87.68718429159745,Baskin Robbins,,60647,IL
735,1746 N Western Ave,Ice Cream Shop,US,Chicago,United States,,1031,"['1746 N Western Ave', 'Chicago, IL 60647', 'United States']",4f997b4bd4f21823bb1f4e04,"[{'label': 'display', 'lat': 41.908912667993114, 'lng': -87.68983168426419}]",41.908912667993114,-87.68983168426419,Baskin-Robbins,,60647,IL
